NAME,ADDRESS,CITY,STATE,ZIP,API ADDRESS,LAT,LONG,COUNTY,PHONE,MED/SURG BEDS
AD HOSPITAL EAST LLC,12950 EAST FREEWAY SUITE 100,HOUSTON,TX,77015,"12950 East Fwy, Ste 100, Houston, TX 77015",29.770566,-95.200479,HARRIS,7133303887,4
ADVANCED DALLAS HOSPITALS AND CLINICS,7502 GREENVILLE,DALLAS,TX,75231,"7502 Greenville Ave, Dallas, TX 75231",32.883766,-96.758006,DALLAS,2142216000,84
ADVENTHEALTH CENTRAL TEXAS,2201 SOUTH CLEAR CREEK ROAD,KILLEEN,TX,76549,"2201 Clear Creek Rd, Killeen, TX 76549",31.113674,-97.801689,BELL,2545198165,101
ADVENTHEALTH ROLLINS BROOK,608 NORTH KEY AVENUE,LAMPASAS,TX,76550,"608 N Key Ave, Lampasas, TX 76550",31.072285,-98.18621,LAMPASAS,5125563682,25
"ALTUS BAYTOWN HOSPITAL, BAYTOWN MEDICAL CENTER",1626 W BAKER RD,BAYTOWN,TX,77521,"1626 W Baker Rd, Baytown, TX 77521",29.771519,-94.981357,HARRIS,2818377600,14
"ALTUS HOUSTON HOSPITAL, CELESTIAL HOSPITAL, ODYSSEY HOSPITAL",6011 W SAM HOUSTON PKWY SOUTH,HOUSTON,TX,77072,"6011 W Sam Houston S Pkwy, Houston, TX 77036",29.711485,-95.556391,HARRIS,7137730556,10
ANSON GENERAL HOSPITAL,101 AVENUE J,ANSON,TX,79501,"101 Ave J, Anson, TX 79501",32.767496,-99.895326,JONES,3258233231,45
ARISE AUSTIN MEDICAL CENTER,3003 BEE CAVE ROAD,AUSTIN,TX,78746,"3003 Bee Caves Rd, Austin, TX 78746",30.270957,-97.795802,TRAVIS,5123143800,17
ASCENSION PROVIDENCE,6901 MEDICAL PARKWAY,WACO,TX,76712,"6901 Medical Pkwy, Waco, TX 76712",31.514413,-97.19945,MCLENNAN,2547514000,180
ASCENSION SETON BASTROP,630 W SH 71,BASTROP,TX,78602,"630 W Sh 71, Bastrop, TX 78602",30.108217,-97.344873,BASTROP,7378817400,7
ASCENSION SETON EDGAR B DAVIS,130 HAYS STREET,LULING,TX,78648,"130 Hays St, Luling, TX 78648",29.673147,-97.654509,CALDWELL,8308757000,24
ASCENSION SETON HAYS,6001 KYLE PARKWAY,KYLE,TX,78640,"6001 Kyle Pkwy, Kyle, TX 78640",30.008842,-97.852665,HAYS,5125045058,94
ASCENSION SETON HIGHLAND LAKES,3201 SOUTH WATER STREET,BURNET,TX,78611,"3201 S Water St, Burnet, TX 78611",30.732869,-98.237012,BURNET,5127153000,21
ASCENSION SETON MEDICAL CENTER AUSTIN,1201 WEST 38TH STREET,AUSTIN,TX,78705,"1201 W 38th St, Austin, TX 78705",30.304914,-97.745402,TRAVIS,5123241000,327
ASCENSION SETON NORTHWEST,11113 RESEARCH BOULEVARD,AUSTIN,TX,78759,"11113 Research Blvd, Austin, TX 78759",30.405845,-97.744736,TRAVIS,5123246900,61
ASCENSION SETON SMITHVILLE,1201 HILL ROAD,SMITHVILLE,TX,78957,"1201 Hill Rd, Smithville, TX 78957",30.003626,-97.136637,BASTROP,5122373214,8
ASCENSION SETON SOUTHWEST,7900 FM 1826,AUSTIN,TX,78737,"7900 Farm To Market Rd 1826, Austin, TX 78737",30.228397,-97.888773,TRAVIS,5123249000,28
ASCENSION SETON WILLIAMSON,201 SETON PARKWAY,ROUND ROCK,TX,78665,"201 Seton Pkwy, Round Rock, TX 78665",30.568164,-97.651106,WILLIAMSON,5123244000,109
ASPIRE HOSPITAL LLC,2006 SOUTH LOOP 336 WEST SUITE 500,CONROE,TX,77304,"2006 S Loop 336 W, Ste 500, Conroe, TX 77304",30.284555,-95.480264,MONTGOMERY,9366473500,6
ATRIUM MEDICAL CENTER LP,11929 WEST AIRPORT BOULEVARD,STAFFORD,TX,77477,"11929 W Airport Blvd, Stafford, TX 77477",29.646502,-95.587899,FORT BEND,2812078200,48
BALLINGER MEMORIAL HOSPITAL DISTRICT,608 AVENUE B,BALLINGER,TX,76821,"608 Ave B, Ballinger, TX 76821",31.75027,-99.962325,RUNNELS,3253652531,23
BAPTIST HOSPITALS OF SOUTHEAST TEXAS,3080 COLLEGE STREET,BEAUMONT,TX,77701,"3080 College St, Beaumont, TX 77701",30.070357,-94.11979,JEFFERSON,4092125000,249
BAPTIST MEDICAL CENTER,111 DALLAS STREET,SAN ANTONIO,TX,78205,"111 Dallas St, San Antonio, TX 78205",29.433872,-98.4923,BEXAR,2102977600,469
BAPTIST NEIGHBORHOOD HOSPITAL HAUSMAN,8230 NORTH 1604 WEST,SAN ANTONIO,TX,78249,"8230 N 1604 W, San Antonio, TX 78249",29.570888,-98.648916,BEXAR,2105728885,8
BAPTIST NEIGHBORHOOD HOSPITAL KELLY,806 CUPPLES ROAD,SAN ANTONIO,TX,78237,"806 Cupples Rd, San Antonio, TX 78237",29.402572,-98.547778,BEXAR,7268002040,8
BAPTIST NEIGHBORHOOD HOSPITAL OVERLOOK PARKWAY,25615 NORTH US HIGHWAY 281,SAN ANTONIO,TX,78258,"25615 N US Hwy 281, San Antonio, TX 78258",29.680807,-98.454869,BEXAR,2105722911,8
BAPTIST NEIGHBORHOOD HOSPITAL SCHERTZ PARKWAY,16977 I-35 NORTH,SCHERTZ,TX,78154,"16977 I-35 N, Schertz, TX 78154",29.594297,-98.290039,GUADALUPE,2105718400,8
BAPTIST NEIGHBORHOOD HOSPITAL THOUSAND OAKS,16088 SAN PEDRO,SAN ANTONIO,TX,78232,"16088 San Pedro Ave, San Antonio, TX 78232",29.589029,-98.474208,BEXAR,2104024092,10
BAPTIST NEIGHBORHOOD HOSPITAL WESTOVER HILLS,10811 TOWN CENTER DRIVE,SAN ANTONIO,TX,78251,"10811 Town Center Dr, San Antonio, TX 78251",29.461515,-98.689878,BEXAR,2105720911,8
BAPTIST NEIGHBORHOOD HOSPITAL ZARZAMORA,7719 IH 35 SOUTH,SAN ANTONIO,TX,78224,"7719 S I-35, San Antonio, TX 78224",29.352308,-98.533415,BEXAR,2105722955,8
BAYLOR SCOTT & WHITE EMERGENCY HOSPITAL MANSFIELD,1776 NORTH US 287 SUITE 100,MANSFIELD,TX,76063,"1776 N US 287, Ste 100, Mansfield, TX 76063",32.597038,-97.144986,TARRANT,2142946300,8
BAYLOR SCOTT & WHITE ALL SAINTS MEDICAL CENTER - FORT WORTH,1400 8TH AVE,FORT WORTH,TX,76104,"1400 8th Ave, Fort Worth, TX 76104",32.729334,-97.345545,TARRANT,8179262544,344
BAYLOR SCOTT & WHITE CONTINUING CARE HOSPITAL,546 N KEGLEY RD,TEMPLE,TX,76502,"546 N Kegley Rd, Temple, TX 76502",31.11812,-97.399072,BELL,2542150900,15
BAYLOR SCOTT & WHITE EMERGENCY HOSPITAL AUBREY,26791 HIGHWAY 380,AUBREY,TX,76227,"US Hwy 380, Aubrey, TX 76227",33.225662,-96.987747,DENTON,9723472525,6
BAYLOR SCOTT & WHITE EMERGENCY HOSPITAL BURLESON,12500 SOUTH FREEWAY SUITE 100,BURLESON,TX,76028,"12500 South Fwy, Ste 100, Burleson, TX 76028",32.575626,-97.321224,TARRANT,2142946250,8
BAYLOR SCOTT & WHITE EMERGENCY HOSPITAL COLLEYVILLE,5500 COLLEYVILLE BOULEVARD,COLLEYVILLE,TX,76034,"5500 Colleyville Blvd, Colleyville, TX 76034",32.888758,-97.15109,TARRANT,2142946350,8
BAYLOR SCOTT & WHITE EMERGENCY HOSPITAL GRAND PRAIRIE,3095 KINGSWOOD BOULEVARD SUITE 100,GRAND PRAIRIE,TX,75052,"3095 Kingswood Blvd, Ste 100, Grand Prairie, TX 75052",32.660732,-97.06108,TARRANT,9728540009,8
BAYLOR SCOTT & WHITE EMERGENCY HOSPITAL KELLER,620 SOUTH MAIN SUITE 100,KELLER,TX,76248,"620 S Main St, Ste 100, Keller, TX 76248",32.927866,-97.254691,TARRANT,2142946100,8
BAYLOR SCOTT & WHITE EMERGENCY HOSPITAL MURPHY,511 FM 544 SUITE 100,MURPHY,TX,75094,"511 E FM 544, Ste 100, Murphy, TX 75094",33.012221,-96.624278,COLLIN,2142946150,8
BAYLOR SCOTT & WHITE EMERGENCY HOSPITAL ROCKWALL,1975 ALPHA SUITE 100,ROCKWALL,TX,75087,"1975 Alpha Dr, Ste 100, Rockwall, TX 75087",32.913937,-96.444983,ROCKWALL,2142946200,8
BAYLOR SCOTT & WHITE EMERGENCY MEDICAL CENTER - CEDAR PARK,900 E WHITESTONE BLVD,CEDAR PARK,TX,78613,"900 E Whitestone Blvd, Cedar Park, TX 78613",30.523333,-97.819892,WILLIAMSON,5126844000,8
BAYLOR SCOTT & WHITE HEART AND VASCULAR HOSPITAL - DALLAS,621 NORTH HALL STREET,DALLAS,TX,75226,"621 N Hall St, Dallas, TX 75226",32.788028,-96.781616,DALLAS,2148200600,39
BAYLOR SCOTT & WHITE MEDICAL CENTER - BRENHAM,700 MEDICAL PKWY,BRENHAM,TX,77833,"700 Medical Pkwy, Brenham, TX 77833",30.145685,-96.398899,WASHINGTON,9793375000,55
BAYLOR SCOTT & WHITE MEDICAL CENTER - CENTENNIAL,12505 LEBANON RD,FRISCO,TX,75035,"12505 Lebanon Rd, Frisco, TX 75035",33.11431,-96.770669,COLLIN,4697648000,72
BAYLOR SCOTT & WHITE MEDICAL CENTER - COLLEGE STATION,700 SCOTT AND WHITE DR,COLLEGE STATION,TX,77845,"College Station, TX 77845",30.579234,-96.293826,BRAZOS,9792070100,77
BAYLOR SCOTT & WHITE MEDICAL CENTER - FRISCO,5601 WARREN PARKWAY,FRISCO,TX,75034,"5601 Warren Pkwy, Frisco, TX 75034",33.10504,-96.837987,COLLIN,2144075000,45
BAYLOR SCOTT & WHITE MEDICAL CENTER - GRAPEVINE,1650 W COLLEGE ST,GRAPEVINE,TX,76051,"1650 W College St, Grapevine, TX 76051",32.933873,-97.093581,TARRANT,8174811588,159
BAYLOR SCOTT & WHITE MEDICAL CENTER - HILLCREST,100 HILLCREST MEDICAL BLV,WACO,TX,76712,"120 Hillcrest Medical Blvd, Waco, TX 76712",31.487525,-97.157815,MCLENNAN,2542029414,96
BAYLOR SCOTT & WHITE MEDICAL CENTER - IRVING,1901 N MACARTHUR BLVD,IRVING,TX,75061,"1901 N Macarthur Blvd, Irving, TX 75061",32.835354,-96.961007,DALLAS,9725795409,208
BAYLOR SCOTT & WHITE MEDICAL CENTER - LAKE POINTE,6800 SCENIC DR,ROWLETT,TX,75088,"6800 Scenic Dr, Rowlett, TX 75088",32.917635,-96.508664,ROCKWALL,9725208000,100
BAYLOR SCOTT & WHITE MEDICAL CENTER - LAKEWAY,100 MEDICAL PKWY,LAKEWAY,TX,78738,"100 Medical Pkwy, Lakeway, TX 78738",30.332918,-97.971449,TRAVIS,5126545000,64
BAYLOR SCOTT & WHITE MEDICAL CENTER - MARBLE FALLS,810 W HIGHWAY 71,MARBLE FALLS,TX,78654,"810 W Sh 71, Marble Falls, TX 78654",30.512921,-98.304593,BURNET,8302018000,30
BAYLOR SCOTT & WHITE MEDICAL CENTER - MCKINNEY,5252 W UNIVERSITY DR,MCKINNEY,TX,75071,"5252 W University Dr, McKinney, TX 75071",33.221085,-96.682581,COLLIN,4697642200,112
BAYLOR SCOTT & WHITE MEDICAL CENTER - PLANO,4700 ALLIANCE BLVD,PLANO,TX,75093,"4700 Alliance Blvd, Plano, TX 75093",33.013583,-96.788231,COLLIN,4698143176,128
BAYLOR SCOTT & WHITE MEDICAL CENTER - ROUND ROCK,300 UNIVERSITY BLVD,ROUND ROCK,TX,78665,"300 University Blvd, Round Rock, TX 78665",30.563383,-97.685004,WILLIAMSON,5125090100,58
BAYLOR SCOTT & WHITE MEDICAL CENTER - SUNNYVALE,231 SOUTH COLLINS ROAD,SUNNYVALE,TX,75182,"231 S Collins Rd, Sunnyvale, TX 75182",32.779137,-96.568943,DALLAS,9728923000,62
BAYLOR SCOTT & WHITE MEDICAL CENTER - TAYLOR,305 MALLARD LN,TAYLOR,TX,76574,"305 Mallard Ln, Taylor, TX 76574",30.591014,-97.415372,WILLIAMSON,7378883100,25
BAYLOR SCOTT & WHITE MEDICAL CENTER - TEMPLE,2401 S 31ST ST,TEMPLE,TX,76508,"2401 S 31st St, Temple, TX 76504",31.077709,-97.363854,BELL,2547242111,397
BAYLOR SCOTT & WHITE MEDICAL CENTER - TROPHY CLUB,2850 EAST STATE HWY 114,TROPHY CLUB,TX,76262,"2850 State Hwy 114, Roanoke, TX 76262",32.989084,-97.176016,DENTON,8178374600,20
BAYLOR SCOTT & WHITE MEDICAL CENTER - UPTOWN,2727 EAST LEMMON AVENUE,DALLAS,TX,75204,"2727 E Lemmon Ave, Dallas, TX 75204",32.804401,-96.795152,DALLAS,2144433040,24
BAYLOR SCOTT & WHITE MEDICAL CENTER - WAXAHACHIE,2400 N IH 35 E,WAXAHACHIE,TX,75165,"2400 N I-35 E, Waxahachie, TX 75165",32.427936,-96.858089,ELLIS,4698434000,100
BAYLOR SCOTT & WHITE ORTHOPEDIC AND SPINE HOSPITAL,707 HIGHLANDER BOULEVARD,ARLINGTON,TX,76015,"707 Highlander Blvd, Arlington, TX 76015",32.68292,-97.116973,TARRANT,8175837100,20
BAYLOR SCOTT & WHITE PAVILION - TEMPLE,1815 S 31ST ST,TEMPLE,TX,76504,"1815 S 31st St, Temple, TX 76504",31.082722,-97.362879,BELL,2547244406,2
BAYLOR SCOTT & WHITE SURGICAL HOSPITAL - FORT WORTH,1800 PARK PLACE AVENUE,FORT WORTH,TX,76110,"1800 Park Place Ave, Fort Worth, TX 76110",32.727086,-97.346892,TARRANT,6827035600,25
BAYLOR SCOTT & WHITE SURGICAL HOSPITAL - LAS COLINAS,400 WEST INTERSTATE 635,IRVING,TX,75063,"400 W 635, Irving, TX 75063",32.912495,-96.951871,DALLAS,9728684000,20
BAYLOR SCOTT & WHITE SURGICAL HOSPITAL AT SHERMAN,3601 N CALAIS STREET,SHERMAN,TX,75090,"3603 N Calais St, Sherman, TX 75090",33.676806,-96.601873,GRAYSON,9038700999,12
BAYLOR SCOTT & WHITE TEXAS SPINE & JOINT HOSPITAL,1814 ROSELAND BOULEVARD,TYLER,TX,75701,"1814 Roseland Blvd, Tyler, TX 75701",32.329657,-95.298762,SMITH,9035253300,20
BAYLOR SCOTT & WHITE THE HEART HOSPITAL - DENTON,2801 SOUTH MAYHILL RD,DENTON,TX,76208,"2801 S Mayhill Rd, Denton, TX 76208",33.176491,-97.087354,DENTON,9402200600,13
BAYLOR SCOTT & WHITE THE HEART HOSPITAL - MCKINNEY,5268 W UNIVERSITY DR,MCKINNEY,TX,75071,"5268 W University Dr, McKinney, TX 75071",33.221346,-96.683342,COLLIN,4698143511,2
BAYLOR ST LUKES MEDICAL CENTER - MCNAIR CAMPUS,7200 CAMBRIDGE STREET,HOUSTON,TX,77030,"7200 Cambridge St, Houston, TX 77030",29.699054,-95.393839,HARRIS,8323541000,90
BAYLOR UNIVERSITY MEDICAL CENTER,3500 GASTON AVENUE,DALLAS,TX,75246,"3500 Gaston Ave, Dallas, TX 75246",32.790908,-96.779474,DALLAS,2148200111,544
BEAUMONT EMERGENCY HOSPITAL,4004 COLLEGE STREET,BEAUMONT,TX,77707,"4004 College St, Beaumont, TX 77707",30.068931,-94.135577,JEFFERSON,4098404004,4
BELLVILLE MEDICAL CENTER,44 NORTH CUMMINGS STREET,BELLVILLE,TX,77418,"44 N Cummings St, Bellville, TX 77418",29.953193,-96.260251,AUSTIN,9794137400,23
BIG BEND REGIONAL MEDICAL CENTER,2600 HIGHWAY 118 NORTH,ALPINE,TX,79830,"2600 N State Highway 118, Alpine, TX 79830",30.384012,-103.67071,BREWSTER,4328373447,23
BROWNFIELD REGIONAL MEDICAL CENTER,705 E FELT ST,BROWNFIELD,TX,79316,"705 E Felt St, Brownfield, TX 79316",33.187643,-102.267155,TERRY,8066373551,36
BRUSHY CREEK FAMILY HOSPITAL LLC,230 DEER RIDGE DR,ROUND ROCK,TX,78681,"230 Deer Ridge Dr, Round Rock, TX 78681",30.496247,-97.722889,WILLIAMSON,5127661400,4
BSA HOSPITAL LLC,1600 WALLACE BLVD,AMARILLO,TX,79106,"1600 Wallace Blvd, Amarillo, TX 79106",35.196207,-101.919999,POTTER,8062122000,315
CAPROCK HOSPITAL,3134 BRIARCREST DR,BRYAN,TX,77802,"3134 Briarcrest Dr, Bryan, TX 77802",30.665735,-96.323901,BRAZOS,9793142323,10
CARROLLTON REGIONAL MEDICAL CENTER,4343 NORTH JOSEY LANE,CARROLLTON,TX,75010,"4343 N Josey Ln, Carrollton, TX 75010",33.028804,-96.885247,DENTON,9724921010,112
CARRUS SPECIALTY HOSPITAL,1810 US HWY 82 WEST STE 200,SHERMAN,TX,75092,"1810 W Hwy 82, Ste 200, Sherman, TX 75092",33.66982,-96.634834,GRAYSON,9038702600,20
CEDAR PARK REGIONAL MEDICAL CENTER,1401 MEDICAL PARKWAY,CEDAR PARK,TX,78613,"1401 Medical Pkwy, Cedar Park, TX 78613",30.532424,-97.812177,WILLIAMSON,5125287000,77
CHI ST JOSEPH HEALTH - COLLEGE STATION HOSPITAL,1604 ROCK PRAIRIE ROAD,COLLEGE STATION,TX,77845,"1604 Rock Prairie Rd, College Station, TX 77845",30.582589,-96.290119,BRAZOS,9797645100,108
CHI ST JOSEPH HEALTH BURLESON HOSPITAL,1101 WOODSON DRIVE,CALDWELL,TX,77836,"1101 Woodson Dr, Caldwell, TX 77836",30.521002,-96.716843,BURLESON,9795673245,25
CHI ST JOSEPH HEALTH GRIMES HOSPITAL,210 SOUTH JUDSON,NAVASOTA,TX,77868,"210 S Judson Ave, Navasota, TX 77868",30.39299,-96.077201,GRIMES,9368256585,25
CHI ST JOSEPH HEALTH MADISON HOSPITAL,100 WEST CROSS STREET,MADISONVILLE,TX,77864,"100 W Cross St, Madisonville, TX 77864",30.942195,-95.910192,MADISON,9363482631,25
CHI ST LUKES HEALTH - BRAZOSPORT,100 MEDICAL DRIVE,LAKE JACKSON,TX,77566,"100 Medical Dr, Lake Jackson, TX 77566",29.03185,-95.452534,BRAZORIA,9792974411,106
CHI ST LUKES HEALTH - MEMORIAL LIVINGSTON,1717 HIGHWAY 59 BYPASS,LIVINGSTON,TX,77351,"1717 US Highway 59th Loop N, Livingston, TX 77351",30.729937,-94.938594,POLK,9363298700,51
CHI ST LUKES HEALTH - SPRINGWOODS VILLAGE,2255 E MOSSY OAKS ROAD,SPRING,TX,77389,"2255 E Mossy Oaks Rd, Spring, TX 77389",30.090607,-95.448989,HARRIS,3463055000,4
CHI ST LUKES HEALTH BAYLOR COLLEGE OF MEDICINE MEDICAL CENTER,6720 BERTNER,HOUSTON,TX,77030,"6720 Bertner Ave, Houston, TX 77030",29.708712,-95.399962,HARRIS,7137858537,647
CHI ST LUKES HEALTH MEMORIAL LUFKIN,1201 W FRANK AVE,LUFKIN,TX,75904,"1201 W Frank Ave, Lufkin, TX 75904",31.336811,-94.743638,ANGELINA,9366348111,172
CHI ST LUKES HEALTH MEMORIAL SAN AUGUSTINE,511 HOSPITAL STREET,SAN AUGUSTINE,TX,75972,"511 Hospital St, San Augustine, TX 75972",31.531565,-94.103153,SAN AUGUSTINE,9362753446,18
CHILDRENS MEDICAL CENTER OF DALLAS,1935 MEDICAL DISTRICT DRIVE,DALLAS,TX,75235,"1935 Medical District Dr, Dallas, TX 75235",32.808994,-96.837745,DALLAS,2144568339,24
CHILDRESS REGIONAL MEDICAL CENTER,901 US HIGHWAY 83 N,CHILDRESS,TX,79201,"901 US Hwy 83, Childress, TX 79201",34.439116,-100.226626,CHILDRESS,9409376371,33
CHRISTUS CHILDRENS,333 NORTH SANTA ROSA STREET,SAN ANTONIO,TX,78207,"333 N Santa Rosa St, San Antonio, TX 78207",29.428136,-98.497912,BEXAR,2107042317,313
CHRISTUS DUBUIS HOSPITAL OF BEAUMONT,2830 CALDER STREET 4TH FLOOR,BEAUMONT,TX,77702,"2830 Calder Ave, Fl 4, Beaumont, TX 77702",30.086619,-94.131292,JEFFERSON,4098997680,33
CHRISTUS GOOD SHEPHERD MEDICAL CENTER - LONGVIEW,700 E MARSHALL AVENUE,LONGVIEW,TX,75601,"700 E Marshall Ave, Longview, TX 75601",32.500863,-94.730171,GREGG,9033151811,287
CHRISTUS GOOD SHEPHERD MEDICAL CENTER - MARSHALL,811 SOUTH WASHINGTON,MARSHALL,TX,75670,"811 S Washington Ave, Marshall, TX 75670",32.536564,-94.367794,HARRISON,9039276000,114
CHRISTUS MOTHER FRANCES HOSPITAL - JACKSONVILLE,2026 SOUTH JACKSON,JACKSONVILLE,TX,75766,"2026 S Jackson St, Jacksonville, TX 75766",31.938716,-95.247921,CHEROKEE,9035414500,25
CHRISTUS MOTHER FRANCES HOSPITAL - SOUTH TYLER,8389 S BROADWAY AVENUE,TYLER,TX,75703,"8389 S Broadway Ave, Tyler, TX 75703",32.257883,-95.308443,SMITH,9036066500,8
CHRISTUS MOTHER FRANCES HOSPITAL - SULPHUR SPRINGS,115 AIRPORT ROAD,SULPHUR SPRINGS,TX,75482,"115 Airport Rd, Sulphur Springs, TX 75482",33.157301,-95.599927,HOPKINS,9034394052,60
CHRISTUS MOTHER FRANCES HOSPITAL - TYLER,800 EAST DAWSON,TYLER,TX,75701,"800 E Dawson St, Tyler, TX 75701",32.342624,-95.291902,SMITH,9035315400,233
CHRISTUS MOTHER FRANCES HOSPITAL - WINNSBORO,719 WEST COKE ROAD,WINNSBORO,TX,75494,"719 W Coke Rd, Winnsboro, TX 75494",32.947569,-95.30615,WOOD,9033425227,21
CHRISTUS SANTA ROSA HOSPITAL - ALAMO HEIGHTS,403 TREELINE PARK,SAN ANTONIO,TX,78209,"403 Treeline Park, San Antonio, TX 78209",29.50605,-98.476432,BEXAR,2102948000,36
CHRISTUS SANTA ROSA HOSPITAL - MEDICAL CENTER,2827 BABCOCK ROAD,SAN ANTONIO,TX,78229,"2827 Babcock Rd, San Antonio, TX 78229",29.512267,-98.589251,BEXAR,2107056021,154
CHRISTUS SANTA ROSA HOSPITAL - NEW BRAUNFELS,600 NORTH UNION AVENUE,NEW BRAUNFELS,TX,78130,"600 N Union Ave, New Braunfels, TX 78130",29.715466,-98.123258,COMAL,8306062170,105
CHRISTUS SANTA ROSA HOSPITAL - SAN MARCOS,1301 WONDER WORLD DRIVE,SAN MARCOS,TX,78666,"1301 Wonder World Dr, San Marcos, TX 78666",29.85279,-97.945825,HAYS,5123538979,118
CHRISTUS SANTA ROSA HOSPITAL - WESTOVER HILLS,11212 STATE HIGHWAY 151,SAN ANTONIO,TX,78251,"11212 State Hwy 151, San Antonio, TX 78251",29.466852,-98.695949,BEXAR,2107038000,138
CHRISTUS SOUTHEAST TEXAS - JASPER MEMORIAL,1275 MARVIN HANCOCK DR,JASPER,TX,75951,"1275 Marvin Hancock Dr, Jasper, TX 75951",30.907546,-94.008358,JASPER,4093845461,39
CHRISTUS SOUTHEAST TEXAS - ST ELIZABETH,2830 CALDER ST,BEAUMONT,TX,77702,"2830 Calder Ave, Beaumont, TX 77702",30.086619,-94.131292,JEFFERSON,4092367107,330
CHRISTUS SOUTHEAST TEXAS ORTHOPEDIC SPECIALTY CENTER,3650 LAUREL ST,BEAUMONT,TX,77707,"3650 Laurel St, Beaumont, TX 77707",30.083285,-94.139992,JEFFERSON,4098380346,6
CHRISTUS SPOHN HOSPITAL ALICE,2500 EAST MAIN STREET,ALICE,TX,78332,"2500 E Main St, Alice, TX 78332",27.764759,-98.044822,JIM WELLS,3616618015,84
CHRISTUS SPOHN HOSPITAL BEEVILLE,1500 EAST HOUSTON HIGHWAY,BEEVILLE,TX,78102,"1500 E Houston St, Beeville, TX 78102",28.407802,-97.73283,BEE,3613542125,52
CHRISTUS SPOHN HOSPITAL CORPUS CHRISTI SHORELINE,600 ELIZABETH STREET,CORPUS CHRISTI,TX,78404,"608 Elizabeth Ave, Kingsville, TX 78363",27.500942,-97.861277,NUECES,3618813148,434
CHRISTUS SPOHN HOSPITAL CORPUS CHRISTI SOUTH,5950 SARATOGA BOULEVARD,CORPUS CHRISTI,TX,78414,"5950 Saratoga Blvd, Corpus Christi, TX 78414",27.681949,-97.376406,NUECES,3619855103,100
CHRISTUS SPOHN HOSPITAL KLEBERG,1311 EAST GENERAL CAVAZOS BOULEVARD,KINGSVILLE,TX,78363,"1311 E General Cavazos Blvd, Kingsville, TX 78363",27.491359,-97.851487,KLEBERG,3615951661,62
CHRISTUS ST MICHAEL HEALTH SYSTEM,2600 ST MICHAEL DRIVE,TEXARKANA,TX,75503,"2600 St Michael Dr, Texarkana, TX 75503",33.464014,-94.075579,BOWIE,9036142211,233
CHRISTUS ST MARY OUTPATIENT CENTER MID COUNTY,8801 9TH AVE,PORT ARTHUR,TX,77642,"8801 9th Ave, Port Arthur, TX 77642",29.953611,-93.985221,JEFFERSON,4097243600,2
CHRISTUS ST MICHAEL HOSPITAL - ATLANTA,1007 SOUTH WILLIAM STREET,ATLANTA,TX,75551,"1007 S William St, Atlanta, TX 75551",33.105544,-94.163783,CASS,9037993000,27
CITIZENS MEDICAL CENTER,2701 HOSPITAL DRIVE,VICTORIA,TX,77901,"2701 Hospital Dr, Victoria, TX 77901",28.81309,-96.977678,VICTORIA,3615739181,209
CLAY COUNTY MEMORIAL HOSPITAL,310 WEST SOUTH STREET,HENRIETTA,TX,76365,"310 W South St, Henrietta, TX 76365",33.814445,-98.198167,CLAY,9405385621,25
CLEVELAND EMERGENCY HOSPITAL,8901 FM 1960 BYPASS RD W SUITE 105,HUMBLE,TX,77338,"8901 Farm To Market Rd 1960 Bypass Rd W, Ste 105, Humble, TX 77338",30.00649,-95.289734,HARRIS,9642812900,4
COCHRAN MEMORIAL HOSPITAL,201 EAST GRANT,MORTON,TX,79346,"201 E Grant Ave, Morton, TX 79346",33.71962,-102.757511,COCHRAN,8062665566,18
COGDELL MEMORIAL HOSPITAL,1700 COGDELL BLVD,SNYDER,TX,79549,"1700 Cogdell Blvd, Snyder, TX 79549",32.688155,-100.917495,SCURRY,3255747437,19
COLEMAN COUNTY MEDICAL CENTER COMPANY,310 SOUTH PECOS STREET,COLEMAN,TX,76834,"310 S Pecos St, Coleman, TX 76834",31.828809,-99.425473,COLEMAN,3256252135,23
COLLINGSWORTH GENERAL HOSPITAL,1013 15TH STREET,WELLINGTON,TX,79095,"1013 15th St, Wellington, TX 79095",34.848788,-100.211681,COLLINGSWORTH,8064472521,13
COLUMBUS COMMUNITY HOSPITAL,110 SHULT DR,COLUMBUS,TX,78934,"110 Shult Dr, Columbus, TX 78934",29.694369,-96.54299,COLORADO,9797322371,34
COMANCHE COUNTY MEDICAL CENTER,10201 HIGHWAY 16 NORTH,COMANCHE,TX,76442,"10201 Highway 16, Comanche, TX 76442",31.984446,-98.561938,COMANCHE,2548794900,23
CONCHO COUNTY HOSPITAL,614 EAKER STREET,EDEN,TX,76837,"614 Eaker St, Eden, TX 76837",31.221266,-99.848379,CONCHO,3258695911,16
CONNALLY MEMORIAL MEDICAL CENTER,499 10TH STREET,FLORESVILLE,TX,78114,"499 10th St, Floresville, TX 78114",29.159486,-98.173761,WILSON,8303931303,40
CONTINUECARE HOSPITAL AT HENDRICK MEDICAL CENTER,1900 PINE STREET 7TH FLOOR,ABILENE,TX,79601,"1900 Pine St, Fl 7, Abilene, TX 79601",32.472171,-99.733822,TAYLOR,3256706251,23
CONTINUECARE HOSPITAL AT MEDICAL CENTER ODESSA,500 W 4TH STREET 4TH FLOOR,ODESSA,TX,79761,"500 W 4th St, Fl, Odessa, TX 79761",31.845373,-102.373391,ECTOR,4326404380,25
COOK CHILDRENS MEDICAL CENTER,801 SEVENTH AVENUE,FORT WORTH,TX,76104,"801 7th Ave, Fort Worth, TX 76104",32.736976,-97.341846,TARRANT,6828854326,7
COON MEMORIAL HOSPITAL AND HOME,1411 DENVER AVENUE,DALHART,TX,79022,"1411 Denver Ave, Dalhart, TX 79022",36.051705,-102.521406,HARTLEY,8062449267,21
CORNERSTONE REGIONAL HOSPITAL,2302 CORNERSTONE BOULEVARD,EDINBURG,TX,78539,"2302 Cornerstone Blvd, Edinburg, TX 78539",26.262479,-98.198356,HIDALGO,9566184444,14
CORNERSTONE SPECIALTY HOSPITALS AUSTIN,4207 BURNET ROAD,AUSTIN,TX,78756,"4207 Burnet Rd, Austin, TX 78756",30.312128,-97.743444,TRAVIS,5127061900,97
CORNERSTONE SPECIALTY HOSPITALS CLEAR LAKE,709 MEDICAL CENTER BLVD,WEBSTER,TX,77598,"709 Medical Center Blvd, Webster, TX 77598",29.537255,-95.129351,HARRIS,2813323322,62
CORNERSTONE SPECIALTY HOSPITALS CONROE,1500 GRAND LAKE DRIVE,CONROE,TX,77304,"1500 Grand Lake Dr, Conroe, TX 77304",30.282192,-95.465705,MONTGOMERY,9365231800,35
CORNERSTONE SPECIALTY HOSPITALS HOUSTON MEDICAL CENTER,1300 BINZ,HOUSTON,TX,77004,"1300 Binz St, Houston, TX 77004",29.724095,-95.387003,HARRIS,7132851000,53
CORNERSTONE SPECIALTY HOSPITALS ROUND ROCK,4681 COLLEGE PARK DRIVE,ROUND ROCK,TX,78665,"4681 College Park Dr, Round Rock, TX 78665",30.566759,-97.657752,WILLIAMSON,5126711100,30
CORPUS CHRISTI MEDICAL CENTER BAY AREA,7101 SOUTH PADRE ISLAND DRIVE,CORPUS CHRISTI,TX,78412,"7101 S Padre Island Dr, Corpus Christi, TX 78412",27.69334,-97.341648,NUECES,3617611200,121
CORPUS CHRISTI MEDICAL CENTER DOCTORS REGIONAL,3315 SOUTH ALAMEDA,CORPUS CHRISTI,TX,78411,"3315 S Alameda St, Corpus Christi, TX 78411",27.754109,-97.38838,NUECES,3617611400,191
CORYELL MEMORIAL HOSPITAL,1507 WEST MAIN STREET,GATESVILLE,TX,76528,"1507 W Main St, Gatesville, TX 76528",31.435215,-97.779162,CORYELL,2548658251,22
COVENANT CHILDRENS HOSPITAL,4015 22ND PLACE,LUBBOCK,TX,79410,"4015 22nd Pl, Lubbock, TX 79410",33.573954,-101.900299,LUBBOCK,8067257960,55
COVENANT HOSPITAL LEVELLAND,1900 COLLEGE AVENUE,LEVELLAND,TX,79336,"1900 S College Ave, Levelland, TX 79336",33.572882,-102.368168,HOCKLEY,8068944963,44
COVENANT HOSPITAL PLAINVIEW,2601 DIMMIT ROAD,PLAINVIEW,TX,79072,"2601 Dimmitt Rd, Plainview, TX 79072",34.206722,-101.731042,HALE,8062964265,56
COVENANT MEDICAL CENTER,3615 19TH STREET,LUBBOCK,TX,79410,"3615 19th St, Lubbock, TX 79410",33.577683,-101.891893,LUBBOCK,8067250000,239
COVENANT SPECIALTY HOSPITAL,3815 20TH STREET,LUBBOCK,TX,79410,"3815 20th St, Lubbock, TX 79410",33.576743,-101.897003,LUBBOCK,8067259200,28
CRANE MEMORIAL HOSPITAL,1310 SOUTH ALFORD STREET,CRANE,TX,79731,"1310 S Alford St, Crane, TX 79731",31.38973,-102.349871,CRANE,4325583555,25
CRESCENT MEDICAL CENTER LANCASTER,2600 WEST PLEASANT RUN ROAD,LANCASTER,TX,75146,"2600 W Pleasant Run Rd, Lancaster, TX 75146",32.602383,-96.812722,DALLAS,4692975321,76
CROCKETT MEDICAL CENTER,1100 E LOOP 304,CROCKETT,TX,75835,"1100 E Loop 304, Crockett, TX 75835",31.324808,-95.438246,HOUSTON,9365463891,15
CROSBYTON CLINIC HOSPITAL,710 WEST MAIN STREET,CROSBYTON,TX,79322,"710 W Main St, Crosbyton, TX 79322",33.660257,-101.246175,CROSBY,8066752382,2
CUERO REGIONAL HOSPITAL,2550 NORTH ESPLANADE,CUERO,TX,77954,"2550 N Esplanade St, Cuero, TX 77954",29.112742,-97.283053,DE WITT,3612756191,40
CULBERSON HOSPITAL,EISENHOWER-FM 2185,VAN HORN,TX,79855,"2201 S Van Horn St, Van Horn, TX 79855",31.017387,-104.827675,CULBERSON,4322832760,14
DALLAS MEDICAL CENTER,7 MEDICAL PARKWAY,DALLAS,TX,75234,"7 Medical Pkwy, Dallas, TX 75234",32.915447,-96.870243,DALLAS,9722471000,133
DALLAS REGIONAL MEDICAL CENTER,1011 NORTH GALLOWAY AVE,MESQUITE,TX,75149,"1011 N Galloway Ave, Mesquite, TX 75149",32.778628,-96.60129,DALLAS,2143207787,128
DEL SOL MEDICAL CENTER A CAMPUS OF LPDS HEALTHCARE,10301 GATEWAY BOULEVARD WEST,EL PASO,TX,79925,"10301 Gateway Blvd W, El Paso, TX 79925",31.756644,-106.351462,EL PASO,9155959000,183
DELL SETON MEDICAL CENTER AT THE UNIVERSITY OF TEXAS,1500 RED RIVER STREET,AUSTIN,TX,78701,"1500 Red River St, Austin, TX 78701",30.276438,-97.734383,TRAVIS,5123247000,120
DETAR HEALTHCARE SYSTEM,506 EAST SAN ANTONIO STREET,VICTORIA,TX,77901,"506 E San Antonio St, Victoria, TX 77901",28.808086,-96.998618,VICTORIA,3615757441,107
DETAR HEALTHCARE SYSTEM,101 MEDICAL DRIVE,VICTORIA,TX,77904,"101 Medical Dr, Victoria, TX 77904",28.854217,-97.019618,VICTORIA,3615736100,41
DHR HEALTH BROWNSVILLE,4750 N EXPRESSWAY 77,BROWNSVILLE,TX,78526,"Brownsville, TX 78526",25.971728,-97.469871,CAMERON,9563627469,56
DIMMIT REGIONAL HOSPITAL,704 HOSPITAL DRIVE,CARRIZO SPRINGS,TX,78834,"704 Hospital Dr, Carrizo Springs, TX 78834",28.519615,-99.863209,DIMMIT,8308762424,21
DOCTORS HOSPITAL AT RENAISSANCE,5501 SOUTH MCCOLL,EDINBURG,TX,78539,"5501 S McColl Rd, Edinburg, TX 78539",26.252805,-98.204995,HIDALGO,9563627360,159
DOCTORS HOSPITAL OF LAREDO,10700 MCPHERSON ROAD,LAREDO,TX,78045,"10700 McPherson Rd, Laredo, TX 78045",27.607033,-99.476413,WEBB,9565232000,106
EAST HOUSTON MEDICAL CENTER,15149 WALLISVILLE ROAD,HOUSTON,TX,77049,"15149 Wallisville Rd, Houston, TX 77049",29.808354,-95.165574,HARRIS,2819889800,4
EASTLAND MEMORIAL HOSPITAL,304 SOUTH DAUGHERTY,EASTLAND,TX,76448,"304 S Daugherty Ave, Eastland, TX 76448",32.399933,-98.821367,EASTLAND,2546292601,52
EL CAMPO MEMORIAL HOSPITAL,303 SANDY CORNER ROAD,EL CAMPO,TX,77437,"303 Sandy Corner Rd, El Campo, TX 77437",29.218917,-96.290741,WHARTON,9795436251,45
EL PASO LTAC HOSPITAL,"1221 NORTH COTTON, 3RD FLOOR",EL PASO,TX,79902,"1221 N Cotton St, Fl 3, El Paso, TX 79902",31.783401,-106.473554,EL PASO,9155465822,33
ELECTRA MEMORIAL HOSPITAL,1207 SOUTH BAILEY STREET,ELECTRA,TX,76360,"1207 S Bailey St, Electra, TX 76360",34.016343,-98.923744,WICHITA,9404953981,19
ELITECARE EMERGENCY HOSPITAL,2530 GULF FREEWAY S,LEAGUE CITY,TX,77573,"2530 Gulf Fwy S, League City, TX 77573",29.474358,-95.096571,GALVESTON,2813377500,4
EMINENT MEDICAL CENTER,1351 W PRESIDENT BUSH HWY,RICHARDSON,TX,75080,"1351 Presidential Dr, Richardson, TX 75081",32.964291,-96.703224,COLLIN,4699108800,5
ENNIS REGIONAL MEDICAL CENTER,2201 WEST LAMPASAS STREET,ENNIS,TX,75119,"W Lampasas St, Ennis, TX 75119",32.321645,-96.628593,ELLIS,9728750900,54
ER TX MEDICAL CENTER MANSFIELD,1710 US 287 FRONTAGE RD,MANSFIELD,TX,76063,"1710 Highway 287 N, Mansfield, TX 76063",32.590571,-97.140217,TARRANT,8176722822,10
EXCEPTIONAL COMMUNITY HOSPITAL AMARILLO,2101 S COULTER STREET,AMARILLO,TX,79106,"2101 S Coulter St, Amarillo, TX 79106",35.189243,-101.919773,POTTER,4693417800,8
FAITH COMMUNITY HOSPITAL,215 CHISHOLM TRAIL,JACKSBORO,TX,76458,"215 Chisholm Trl, Jacksboro, TX 76458",33.230748,-98.166978,JACK,9405676633,13
FALLS COMMUNITY HOSPITAL AND CLINIC,322 COLEMAN STREET,MARLIN,TX,76661,"322 Coleman St, Marlin, TX 76661",31.307493,-96.893064,FALLS,2548033561,36
FIRST BAPTIST MEDICAL CENTER,8111 MEADOW RD,DALLAS,TX,75231,"8111 Meadow Rd, Dallas, TX 75231",32.888377,-96.766589,DALLAS,4693293700,14
FIRST SURGICAL HOSPITAL,4801 BISSONNET STREET,BELLAIRE,TX,77401,"4801 Bissonnet St, Bellaire, TX 77401",29.710107,-95.462486,HARRIS,7132751111,19
FISHER COUNTY HOSPITAL DISTRICT,774 STATE HWY 70 NORTH,ROTAN,TX,79546,"774 State Hwy 70, Rotan, TX 79546",32.858943,-100.467826,FISHER,3257352256,14
FORT DUNCAN REGIONAL MEDICAL CENTER,3333 NORTH FOSTER MALDONADO,EAGLE PASS,TX,78852,"3333 N Foster Maldonado Blvd, Eagle Pass, TX 78852",28.71316,-100.455385,MAVERICK,8307735321,56
FOUNDATION SURGICAL HOSPITAL OF SAN ANTONIO,9522 HUEBNER ROAD,SAN ANTONIO,TX,78240,"9522 Huebner Rd, San Antonio, TX 78240",29.530296,-98.590537,BEXAR,2104785400,20
FREESTONE MEDICAL CENTER,125 NEWMAN STREET,FAIRFIELD,TX,75840,"125 Newman St, Fairfield, TX 75840",31.724893,-96.169516,FREESTONE,9033892121,35
FRIO REGIONAL HOSPITAL,200 S IH-35,PEARSALL,TX,78061,"200 S I-35, Pearsall, TX 78061",28.898142,-99.115749,FRIO,8303343617,22
GLEN ROSE MEDICAL CENTER,1021 HOLDEN STREET,GLEN ROSE,TX,76043,"1021 Holden St, Glen Rose, TX 76043",32.242738,-97.746085,SOMERVELL,2548972215,16
GOLDEN PLAINS COMMUNITY HOSPITAL,100 MEDICAL DRIVE,BORGER,TX,79007,"100 Medical Dr, Borger, TX 79007",35.65535,-101.408888,HUTCHINSON,8064675700,18
GOODALL-WITCHER HOSPITAL,101 POSEY AVE,CLIFTON,TX,76634,"101 Posey Ave, Clifton, TX 76634",31.77775,-97.588686,BOSQUE,2546758322,23
GRACE SURGICAL HOSPITAL,7509 MARSHA SHARP FWY,LUBBOCK,TX,79407,"7509 Marsha Sharp Fwy, Lubbock, TX 79407",33.523894,-101.98459,LUBBOCK,8067254000,32
GRAHAM HOSPITAL DISTRICT,1301 MONTGOMERY ROAD,GRAHAM,TX,76450,"1301 Montgomery Rd, Graham, TX 76450",33.089763,-98.583961,YOUNG,9405493400,18
GUADALUPE REGIONAL MEDICAL CENTER,1215 EAST COURT STREET,SEGUIN,TX,78155,"1215 E Court St, Seguin, TX 78155",29.567935,-97.947397,GUADALUPE,8303792411,100
HAMILTON GENERAL HOSPITAL,400 NORTH BROWN AVENUE,HAMILTON,TX,76531,"400 N Brown St, Hamilton, TX 76531",31.704894,-98.114066,HAMILTON,2543861950,25
HAMILTON HOSPITAL,901 WEST HAMILTON STREET,OLNEY,TX,76374,"901 W Hamilton St, Olney, TX 76374",33.369307,-98.764445,YOUNG,9405645521,18
HANSFORD COUNTY HOSPITAL,707 SOUTH ROLAND,SPEARMAN,TX,79081,"707 S Roland St, Spearman, TX 79081",36.190271,-101.199896,HANSFORD,8066592535,14
HARDEMAN COUNTY MEMORIAL HOSPITAL,402 MERCER STREET,QUANAH,TX,79252,"402 Mercer St, Quanah, TX 79252",34.296476,-99.741404,HARDEMAN,9406632795,24
HARLINGEN MEDICAL CENTER,5501 SOUTH EXPRESSWAY 77,HARLINGEN,TX,78550,"Harlingen, TX 78550",26.255523,-97.667502,CAMERON,9563651000,90
HARRIS HEALTH SYSTEM BEN TAUB HOSPITAL,1504 TAUB LOOP,HOUSTON,TX,77030,"1504 Taub Loop, Houston, TX 77030",29.712675,-95.393774,HARRIS,3464260478,230
HARRIS HEALTH SYSTEM LYNDON B JOHNSON HOSPITAL,5656 KELLEY STREET,HOUSTON,TX,77026,"5656 Kelley St, Houston, TX 77026",29.811429,-95.310943,HARRIS,3464260478,144
HASKELL MEMORIAL HOSPITAL,1 NORTH AVENUE N,HASKELL,TX,79521,"N Ave N, Haskell, TX 79521",33.159153,-99.744644,HASKELL,9408642621,25
HCA HOUSTON HEALTHCARE CLEAR LAKE,500 MEDICAL CENTER BLVD,WEBSTER,TX,77598,"500 Medical Center Blvd, Webster, TX 77598",29.539812,-95.126216,HARRIS,2813322511,303
HCA HOUSTON HEALTHCARE CONROE,504 MEDICAL CENTER BOULEVARD,CONROE,TX,77304,"504 Medical Center Blvd, Conroe, TX 77304",30.284117,-95.46829,MONTGOMERY,9365391111,233
HCA HOUSTON HEALTHCARE KINGWOOD,22999 US HIGHWAY 59,KINGWOOD,TX,77339,"22999 US Highway 59 N, Humble, TX 77339",30.05008,-95.254977,MONTGOMERY,2813488001,284
HCA HOUSTON HEALTHCARE MAINLAND,6801 EMMETT F LOWERY EXPRESSWAY,TEXAS CITY,TX,77591,"6801 Emmett F Lowry Expy, Texas City, TX 77591",29.393783,-94.986295,GALVESTON,4099385000,148
HCA HOUSTON HEALTHCARE MEDICAL CENTER,1313 HERMANN DRIVE,HOUSTON,TX,77004,"1313 Hermann Dr, Houston, TX 77004",29.722727,-95.387547,HARRIS,7135275000,418
HCA HOUSTON HEALTHCARE NORTH CYPRESS,21214 NORTHWEST FREEWAY,CYPRESS,TX,77429,"21214 Northwest Fwy, Cypress, TX 77429",29.927665,-95.632202,HARRIS,8329123500,119
HCA HOUSTON HEALTHCARE NORTHWEST,710 CYPRESS CREEK PARKWAY,HOUSTON,TX,77090,"709 Cypress Station Dr, Houston, TX 77090",30.030067,-95.440495,HARRIS,2814401000,283
HCA HOUSTON HEALTHCARE PEARLAND,11100 SHADOW CREEK PARKWAY,PEARLAND,TX,77584,"11100 Shadow Creek Pkwy, Pearland, TX 77584",29.577963,-95.390876,BRAZORIA,7137707100,40
HCA HOUSTON HEALTHCARE SOUTHEAST,4000 SPENCER HIGHWAY,PASADENA,TX,77504,"4000 Spencer Hwy, Pasadena, TX 77504",29.661171,-95.183755,HARRIS,7133592000,252
HCA HOUSTON HEALTHCARE TOMBALL,605 HOLDERRIETH BOULEVARD,TOMBALL,TX,77375,"605 Holderrieth Blvd, Tomball, TX 77375",30.0874,-95.620728,HARRIS,2814017500,252
HCA HOUSTON HEALTHCARE WEST,12141 RICHMOND AVENUE,HOUSTON,TX,77082,"12141 Richmond Ave, Houston, TX 77082",29.729197,-95.594442,HARRIS,2815583444,176
"HEART HOSPITAL OF AUSTIN, A CAMPUS OF ST DAVIDS MEDICAL CENTER",3801 NORTH LAMAR,AUSTIN,TX,78756,"3801 N Lamar Blvd, Austin, TX 78756",30.305918,-97.741119,TRAVIS,5124077000,58
HEART OF TEXAS HEALTHCARE SYSTEM,2008 NINE ROAD,BRADY,TX,76825,"2008 9th Rd, Brady, TX 76825",31.117865,-99.346768,MCCULLOCH,3255972901,21
HEMPHILL COUNTY HOSPITAL,1020 SOUTH 4TH STREET,CANADIAN,TX,79014,"1020 S 4th St, Canadian, TX 79014",35.903557,-100.3882,HEMPHILL,8063236422,26
HENDRICK MEDICAL CENTER,1900 PINE,ABILENE,TX,79601,"Abilene, TX 79601",32.576489,-99.665323,TAYLOR,3256702000,415
HENDRICK MEDICAL CENTER BROWNWOOD,1501 BURNETT RD,BROWNWOOD,TX,76801,"1501 Burnett Rd, Brownwood, TX 76801",31.678089,-98.99369,BROWN,3256493300,142
HENDRICK MEDICAL CENTER SOUTH,6250 US HIGHWAY 83,ABILENE,TX,79606,"6254 US Hwy 83, Winters, TX 79567",31.908644,-99.966048,TAYLOR,3254281010,139
HEREFORD REGIONAL MEDICAL CENTER,540 WEST 15TH STREET,HEREFORD,TX,79045,"540 W 15th St, Hereford, TX 79045",34.838958,-102.413712,DEAF SMITH,8063642141,29
HILL REGIONAL HOSPITAL,101 CIRCLE DRIVE,HILLSBORO,TX,76645,"101 Circle Dr, Hillsboro, TX 76645",32.012365,-97.098317,HILL,2545808500,21
HORIZON MEDICAL CENTER OF DENTON,2813 S MAYHILL RD,DENTON,TX,76208,"2813 S Mayhill Rd, Denton, TX 76208",33.174282,-97.087069,DENTON,9405658580,22
HOUSTON METHODIST BAYTOWN HOSPITAL,4401 GARTH RD,BAYTOWN,TX,77521,"4401 Garth Rd, Baytown, TX 77521",29.769072,-94.979045,HARRIS,2814208600,205
HOUSTON METHODIST CLEAR LAKE HOSPITAL,18300 HOUSTON METHODIST DR,HOUSTON,TX,77058,"Houston, TX 77058",29.571604,-95.099828,HARRIS,2813338865,128
HOUSTON METHODIST CONTINUING CARE HOSPITAL,701 S FRY RD,KATY,TX,77450,"701 S Fry Rd, Katy, TX 77450",29.777375,-95.718627,HARRIS,8325227550,80
HOUSTON METHODIST CONTINUING CARE HOSPITAL - TMC,6501 FANNIN ST FL 8-9,HOUSTON,TX,77030,"6501 Fannin St, Fl 8-9, Houston, TX 77030",29.711475,-95.398922,HARRIS,7134414082,43
HOUSTON METHODIST HOSPITAL,6565 FANNIN ST,HOUSTON,TX,77030,"6565 Fannin St, Houston, TX 77030",29.709033,-95.400335,HARRIS,7137903311,979
HOUSTON METHODIST SUGAR LAND HOSPITAL,16655 SOUTHWEST FWY,SUGAR LAND,TX,77479,"16655 Southwest Fwy, Sugar Land, TX 77479",29.588964,-95.631127,FORT BEND,2812747000,252
HOUSTON METHODIST THE WOODLANDS HOSPITAL,17201 I-45 SOUTH,THE WOODLANDS,TX,77385,"17201 I-45 S, Shenandoah, TX 77385",30.205188,-95.451727,MONTGOMERY,9362702000,176
HOUSTON METHODIST WEST HOSPITAL,18500 KATY FWY,HOUSTON,TX,77094,"18500 Katy Fwy, Houston, TX 77094",29.787208,-95.697905,HARRIS,8325221000,128
HOUSTON METHODIST WILLOWBROOK HOSPITAL,18220 STATE HIGHWAY 249,HOUSTON,TX,77070,"18220 Tomball Pkwy, Houston, TX 77070",29.966597,-95.551132,HARRIS,2817371000,180
HOUSTON PHYSICIANS HOSPITAL,333 NORTH TEXAS AVENUE,WEBSTER,TX,77598,"333 N Texas Ave, Webster, TX 77598",29.533391,-95.126126,HARRIS,2815575621,15
HUNT REGIONAL HEALTHCARE,4215 JOE RAMSEY BOULEVARD,GREENVILLE,TX,75401,"4215 Joe Ramsey Blvd, Greenville, TX 75401",33.122487,-96.123918,HUNT,9034085000,104
HUNTSVILLE MEMORIAL HOSPITAL,110 MEMORIAL HOSPITAL DRIVE,HUNTSVILLE,TX,77340,"110 Memorial Hospital Dr, Huntsville, TX 77340",30.698734,-95.558982,WALKER,9362913411,106
IRAAN GENERAL HOSPITAL,600 HIGHWAY 349 NORTH,IRAAN,TX,79744,"600 N State Highway 349, Iraan, TX 79744",30.789776,-101.842646,PECOS,4326392575,14
JACKSON COUNTY HOSPITAL,1013 SOUTH WELLS STREET,EDNA,TX,77957,"1013 S Wells St, Edna, TX 77957",28.969191,-96.635579,JACKSON,3617827800,25
JOHN PETER SMITH HOSPITAL,1500 S MAIN ST,FORT WORTH,TX,76104,"1500 S Main St, Fort Worth, TX 76104",32.726819,-97.328127,TARRANT,8179213431,166
KELL WEST REGIONAL HOSPITAL,5420 KELL BOULEVARD WEST,WICHITA FALLS,TX,76310,"5420 Kell Blvd, Wichita Falls, TX 76310",33.872144,-98.58742,WICHITA,9406925888,41
KIMBLE HOSPITAL,349 REID ROAD,JUNCTION,TX,76849,"349 Reid Rd, Junction, TX 76849",30.498818,-99.780492,KIMBLE,3254463321,15
KINDRED HOSPITAL - SAN ANTONIO CENTRAL,111 DALLAS STREET 4TH FLOOR,SAN ANTONIO,TX,78205,"111 Dallas St, Fl 4, San Antonio, TX 78205",29.433872,-98.4923,BEXAR,2102977195,44
KINDRED HOSPITAL CLEAR LAKE,350 BLOSSOM STREET,WEBSTER,TX,77598,"350 Blossom St, Webster, TX 77598",29.544005,-95.127838,HARRIS,2813167800,96
KINDRED HOSPITAL DALLAS CENTRAL,8050 MEADOW ROAD,DALLAS,TX,75231,"8050 Meadow Rd, Dallas, TX 75231",32.887126,-96.767638,DALLAS,4692326500,40
KINDRED HOSPITAL EL PASO,1740 CURIE DRIVE,EL PASO,TX,79902,"1740 Curie Dr, El Paso, TX 79902",31.778996,-106.477362,EL PASO,9153519044,64
KINDRED HOSPITAL HOUSTON MEDICAL CENTER,6441 MAIN STREET,HOUSTON,TX,77030,"6441 Main St, Houston, TX 77030",29.712968,-95.399037,HARRIS,7137900500,88
KINDRED HOSPITAL HOUSTON NW,11297 FALLBROOK DRIVE,HOUSTON,TX,77065,"11297 Fallbrook Dr, Houston, TX 77065",29.924425,-95.588005,HARRIS,2815171000,47
KINDRED HOSPITAL SUGAR LAND,1550 FIRST COLONY BOULEVARD,SUGAR LAND,TX,77479,"1550 1 Colony Blvd, Sugar Land, TX 77479",29.600647,-95.63812,FORT BEND,2812756000,69
KINDRED HOSPITAL-SAN ANTONIO,3636 MEDICAL DRIVE,SAN ANTONIO,TX,78229,"3636 Medical Dr, San Antonio, TX 78229",29.522377,-98.556416,BEXAR,2106160616,53
KINDRED HOSPITAL-TARRANT COUNTY,1000 NORTH COOPER STREET,ARLINGTON,TX,76011,"1000 N Cooper St, Arlington, TX 76011",32.750511,-97.114156,TARRANT,8175483400,62
KINDRED HOSPITAL-TARRANT COUNTY,7800 OAKMONT BOULEVARD,FORT WORTH,TX,76132,"7800 Oakmont Blvd, Fort Worth, TX 76132",32.665931,-97.424117,TARRANT,8173460094,82
KINGWOOD EMERGENCY HOSPITAL,23330 HIGHWAY 59 N,KINGWOOD,TX,77339,"23330 US Highway 59 N, Humble, TX 77339",30.054628,-95.250188,MONTGOMERY,8327776165,6
KNAPP MEDICAL CENTER,1401 EAST EIGHTH STREET,WESLACO,TX,78596,"1401 E 8th St, Weslaco, TX 78596",26.152119,-97.97749,HIDALGO,9569688567,166
KNOX COUNTY HOSPITAL,701 SOUTHEAST 5TH STREET,KNOX CITY,TX,79529,"701 SE 5th St, Knox City, TX 79529",33.413698,-99.811498,KNOX,9406573535,23
KPC PROMISE HOSPITAL OF AMARILLO,1540 RESEARCH ST,AMARILLO,TX,79124,"1540 Research St, Amarillo, TX 79124",35.197751,-101.926228,POTTER,8066398670,44
KPC PROMISE HOSPITAL OF DALLAS,7955 HARRY HINES BOULEVARD,DALLAS,TX,75235,"7955 Harry Hines Blvd, Dallas, TX 75235",32.832518,-96.86197,DALLAS,2146370000,66
KPC PROMISE HOSPITAL OF WICHITA FALLS,1103 GRACE STREET,WICHITA FALLS,TX,76301,"1103 Grace St, Wichita Falls, TX 76301",33.903011,-98.50019,WICHITA,9402139370,31
KYLE ER & HOSPITAL,5615 KYLE CENTER DR,KYLE,TX,78640,"5615 Kyle Center Dr, Kyle, TX 78640",30.007582,-97.865228,HAYS,7136600557,4
LAKE GRANBURY MEDICAL CENTER,1310 PALUXY ROAD,GRANBURY,TX,76048,"1310 Paluxy Rd, Granbury, TX 76048",32.432362,-97.803711,HOOD,8175732273,46
LAKE TRAVIS ER LLC,5012 N FM 620 RD,AUSTIN,TX,78732,"5012 N Fm 620th Rd, Austin, TX 78732",30.391175,-97.885004,TRAVIS,5122602732,4
LAMB HEALTHCARE CENTER,1500 SOUTH SUNSET,LITTLEFIELD,TX,79339,"1500 S Sunset Ave, Littlefield, TX 79339",33.911885,-102.344833,LAMB,8063856411,75
LAREDO MEDICAL CENTER,1700 EAST SAUNDERS STREET,LAREDO,TX,78041,"1700 E Saunders St, Laredo, TX 78041",27.530851,-99.479962,WEBB,9567965000,186
LAREDO SPECIALTY HOSPITAL,2005 BUSTAMANTE ST,LAREDO,TX,78041,"2005 Bustamante St, Laredo, TX 78041",27.533535,-99.473782,WEBB,9567535353,34
LAS PALMAS MEDICAL CENTER A CAMPUS OF LPDS HEALTHCARE,1801 NORTH OREGON STREET,EL PASO,TX,79902,"1801 N Oregon St, El Paso, TX 79902",31.770037,-106.49823,EL PASO,9155211776,164
LAVACA MEDICAL CENTER,1400 NORTH TEXANA STREET,HALLETTSVILLE,TX,77964,"1400 N Texana St, Hallettsville, TX 77964",29.457421,-96.938331,LAVACA,3617983671,22
LEGENT HOSPITAL FOR SPECIAL SURGERY,4100 MAPLESHADE LANE,PLANO,TX,75075,"4100 Mapleshade Ln, Plano, TX 75093",33.001305,-96.771816,COLLIN,9722651050,7
LEGENT NORTH HOUSTON SURGICAL HOSPITAL,24429 TOMBALL PARKWAY,TOMBALL,TX,77375,"24421 Tomball Pkwy, Tomball, TX 77375",30.03653,-95.605112,HARRIS,3467660880,8
LEGENT ORTHOPEDIC + SPINE,5330 NORTH LOOP 1604 WEST,SAN ANTONIO,TX,78249,"5330 N Loop 1604 W, San Antonio, TX 78249",29.590754,-98.590351,BEXAR,2108778000,21
LEGENT ORTHOPEDIC HOSPITAL,1401 E TRINITY MILLS RD,CARROLLTON,TX,75006,"1401 E Trinity Mills Rd, Carrollton, TX 75006",32.985575,-96.898337,DALLAS,9728100700,18
LIBERTY DAYTON REGIONAL MEDICAL CENTER,1353 NORTH TRAVIS,LIBERTY,TX,77575,"1353 N Travis St, Liberty, TX 77575",30.068352,-94.799266,LIBERTY,9363367316,25
LIFECARE HOSPITALS OF FT WORTH,6201 OVERTON RIDGE BOULEVARD,FORT WORTH,TX,76132,"6201 Overton Ridge Blvd, Fort Worth, TX 76132",32.678823,-97.421136,TARRANT,8173706078,70
LIFECARE HOSPITALS OF NORTH TEXAS - DALLAS,1950 RECORD CROSSING ROAD,DALLAS,TX,75235,"1950 Record Crossing Rd, Dallas, TX 75235",32.817306,-96.848898,DALLAS,2146409600,54
LIFECARE HOSPITALS OF PLANO,6800 PRESTON ROAD,PLANO,TX,75024,"6800 Preston Rd, Plano, TX 75024",33.065468,-96.794807,COLLIN,2144738822,66
LILLIAN M HUDSPETH MEMORIAL HOSPITAL,308 HUDSPETH AVENUE,SONORA,TX,76950,"308 Hudspeth St, Sonora, TX 76950",30.563469,-100.63437,SUTTON,3253872521,12
LIMESTONE MEDICAL CENTER,701 MCCLINTIC,GROESBECK,TX,76642,"701 Mc Clintic Dr, Groesbeck, TX 76642",31.530424,-96.530423,LIMESTONE,2547293281,20
LONGVIEW REGIONAL MEDICAL CENTER,2901 NORTH FOURTH STREET,LONGVIEW,TX,75605,"2901 N 4th St, Longview, TX 75605",32.532185,-94.728805,GREGG,9037581818,162
LUBBOCK HEART & SURGICAL HOSPITAL,4810 NORTH LOOP 289,LUBBOCK,TX,79416,"4810 N Loop 289, Lubbock, TX 79416",33.602938,-101.915394,LUBBOCK,8066877777,58
LUMBERTON HOSPITAL LLC,220 BLANCO STREET,LUMBERTON,TX,77657,"220 Blanco St, Lumberton, TX 77657",30.261675,-94.221027,HARDIN,4092270520,4
LYNN COUNTY HOSPITAL DISTRICT,2600 LOCKWOOD,TAHOKA,TX,79373,"2600 Lockwood St, Tahoka, TX 79373",33.16682,-101.816199,LYNN,8069984533,24
MARTIN COUNTY HOSPITAL DISTRICT,600 EAST I 20,STANTON,TX,79782,"I-20 I 20, Stanton, TX 79782",32.124368,-101.821413,MARTIN,4326073204,18
MATAGORDA REGIONAL MEDICAL CENTER,104 7TH STREET,BAY CITY,TX,77414,"104 7th St, Bay City, TX 77414",28.980333,-95.991914,MATAGORDA,9792456383,30
MAYHILL HOSPITAL,2809 MAYHILL ROAD SOUTH,DENTON,TX,76208,"2809 S Mayhill Rd, Denton, TX 76208",33.175799,-97.087153,DENTON,9402393000,4
MCCAMEY HOSPITAL,2500 HIGHWAY 305 SOUTH,MCCAMEY,TX,79752,"Mc Camey, TX 79752",31.16157,-102.107279,UPTON,4326528626,14
MEDICAL ARTS HOSPITAL,2200 NORTH BRYAN AVENUE,LAMESA,TX,79331,"2200 N Bryan Ave, Lamesa, TX 79331",32.749334,-101.967595,DAWSON,8068722183,21
MEDICAL CENTER HOSPITAL,500 W 4TH ST,ODESSA,TX,79761,"500 W 4th St, Odessa, TX 79761",31.845373,-102.373391,ECTOR,4326402413,277
MEDICAL CITY ALLIANCE,3101 N TARRANT PKWY,FORT WORTH,TX,76177,"3101 N Tarrant Pkwy, Fort Worth, TX 76177",32.89983,-97.313977,TARRANT,8176391100,56
MEDICAL CITY ARLINGTON,3301 MATLOCK RD,ARLINGTON,TX,76015,"3301 Matlock Rd, Arlington, TX 76015",32.690201,-97.113928,TARRANT,8174653241,254
MEDICAL CITY DALLAS HOSPITAL,7777 FOREST LN,DALLAS,TX,75230,"7777 Forest Ln, Dallas, TX 75230",32.911775,-96.773229,DALLAS,9725666000,445
MEDICAL CITY DENTON,3535 SOUTH I-35 EAST,DENTON,TX,76210,"3535 S I-35 E I 35, Denton, TX 76210",33.176683,-97.092588,DENTON,9403843535,179
MEDICAL CITY FORT WORTH,900 EIGHTH AVENUE,FORT WORTH,TX,76104,"900 8th Ave, Fort Worth, TX 76104",32.735903,-97.345153,TARRANT,8173362100,262
MEDICAL CITY FRISCO A MEDICAL CENTER OF PLANO FACILITY,5500 FRISCO SQUARE BLVD,FRISCO,TX,75034,"5500 Frisco Square Blvd, Frisco, TX 75034",33.150894,-96.838944,COLLIN,2146180500,50
MEDICAL CITY HEART & SPINE HOSPITALS,11970 NORTH CENTRAL EXPRESSWAY,DALLAS,TX,75243,"11970 N Central Expy, Dallas, TX 75243",32.911715,-96.766786,DALLAS,9725666217,72
MEDICAL CITY LAS COLINAS,6800 N MACARTHUR BLVD,IRVING,TX,75039,"6800 N Macarthur Blvd, Irving, TX 75039",32.902163,-96.957303,DALLAS,9729692000,52
MEDICAL CITY LEWISVILLE,500 W MAIN ST,LEWISVILLE,TX,75057,"500 W Main St, Lewisville, TX 75057",33.044381,-97.004532,DENTON,4693702707,104
MEDICAL CITY MCKINNEY,4500 MEDICAL CENTER DR,MCKINNEY,TX,75069,"4500 Medical Center Dr, McKinney, TX 75069",33.159641,-96.636911,COLLIN,9725478001,149
MEDICAL CITY NORTH HILLS,4401 BOOTH CALLOWAY ROAD,NORTH RICHLAND HILLS,TX,76180,"4401 Booth Calloway Rd, North Richland Hills, TX 76180",32.829318,-97.214001,TARRANT,8172551000,124
MEDICAL CITY PLANO,3901 W 15TH ST,PLANO,TX,75075,"3901 W 15th St, Plano, TX 75075",33.021675,-96.766206,COLLIN,9725191101,393
MEDICAL CITY WEATHERFORD,713 E ANDERSON ST,WEATHERFORD,TX,76086,"713 E Anderson St, Weatherford, TX 76086",32.748269,-97.785737,PARKER,6825821000,61
MEDINA REGIONAL HOSPITAL,3100 AVENUE E,HONDO,TX,78861,"3100 Ave E, Hondo, TX 78861",29.335205,-99.133549,MEDINA,8304267838,21
MEMORIAL HERMANN - TEXAS MEDICAL CENTER,6411 FANNIN,HOUSTON,TX,77030,"6411 Fannin St, Houston, TX 77030",29.714052,-95.396173,HARRIS,7137044000,403
MEMORIAL HERMANN | ROCKETS ORTHOPEDIC HOSPITAL,5410 WEST LOOP SOUTH,BELLAIRE,TX,77401,"5410 W Loop S, Bellaire, TX 77401",29.724474,-95.461153,HARRIS,7133144444,64
MEMORIAL HERMANN CYPRESS HOSPITAL,27800 NORTHWEST FREEWAY,CYPRESS,TX,77433,"27700 Northwest Fwy, Cypress, TX 77433",29.986183,-95.731952,HARRIS,3462314000,20
MEMORIAL HERMANN GREATER HEIGHTS HOSPITAL,1635 NORTH LOOP WEST,HOUSTON,TX,77008,"1635 N Loop W, Houston, TX 77008",29.810888,-95.43067,HARRIS,7138672000,169
MEMORIAL HERMANN KATY HOSPITAL,23900 KATY FREEWAY,KATY,TX,77494,"23900 Katy Fwy, Katy, TX 77494",29.787086,-95.786189,HARRIS,2816447000,86
MEMORIAL HERMANN MEMORIAL CITY MEDICAL CENTER,921 GESSNER ROAD,HOUSTON,TX,77024,"921 Gessner Rd, Houston, TX 77024",29.781137,-95.545763,HARRIS,7139323000,304
MEMORIAL HERMANN NORTHEAST HOSPITAL,18951 MEMORIAL NORTH,HUMBLE,TX,77338,"18951 Memorial Blvd, Humble, TX 77338",29.994309,-95.273599,HARRIS,2815407700,133
MEMORIAL HERMANN PEARLAND HOSPITAL,16100 SOUTH FREEWAY,PEARLAND,TX,77584,"16100 South Fwy, Pearland, TX 77584",29.563684,-95.388809,BRAZORIA,7134136580,54
MEMORIAL HERMANN SOUTHEAST HOSPITAL,11800 ASTORIA BOULEVARD,HOUSTON,TX,77089,"11800 Astoria Blvd, Houston, TX 77089",29.58251,-95.207263,HARRIS,2819296100,234
MEMORIAL HERMANN SOUTHWEST HOSPITAL,7600 BEECHNUT,HOUSTON,TX,77074,"7600 Beechnut St, Houston, TX 77074",29.692477,-95.521494,HARRIS,7134565000,392
MEMORIAL HERMANN SPECIALTY HOSPITAL KINGWOOD LLC,300 KINGWOOD MEDICAL DRIVE,KINGWOOD,TX,77339,"300 Kingwood Medical Dr, Kingwood, TX 77339",30.048221,-95.258746,MONTGOMERY,2813124000,10
MEMORIAL HERMANN SUGAR LAND HOSPITAL,17500 WEST GRAND PARKWAY SOUTH,SUGAR LAND,TX,77479,"17500 W Grand Pkwy S, Sugar Land, TX 77479",29.564723,-95.690119,FORT BEND,2817255202,104
MEMORIAL HERMANN SURGICAL HOSPITAL FIRST COLONY,16906 SOUTH WEST FREEWAY,SUGAR LAND,TX,77479,"16906 Southwest Fwy, Sugar Land, TX 77479",29.589963,-95.636224,FORT BEND,2812431000,6
MEMORIAL HERMANN THE WOODLANDS MEDICAL CENTER,9250 PINECROFT,THE WOODLANDS,TX,77380,"9250 Pinecroft Dr, Shenandoah, TX 77380",30.174078,-95.454003,MONTGOMERY,7138972301,222
MEMORIAL HOSPITAL,1110 N SARAH DEWITT DRIVE,GONZALES,TX,78629,"1110 N Sarah Dewitt Dr, Gonzales, TX 78629",29.517542,-97.429642,GONZALES,8306727581,26
MEMORIAL HOSPITAL,209 NW 8TH STREET,SEMINOLE,TX,79360,"209 NW 8th St, Seminole, TX 79360",32.721636,-102.654844,GAINES,4327585811,25
MEMORIAL HOSPITAL,224 EAST SECOND STREET,DUMAS,TX,79029,"224 E 2nd St, Dumas, TX 79029",35.864457,-101.971275,MOORE,8069347801,17
MEMORIAL MEDICAL CENTER,815 NORTH VIRGINIA STREET,PORT LAVACA,TX,77979,"815 N Virginia St, Port Lavaca, TX 77979",28.620564,-96.631909,CALHOUN,3615526713,16
MESQUITE SPECIALTY HOSPITAL,1024 NORTH GALLOWAY AVENUE,MESQUITE,TX,75149,"1024 N Galloway Ave, Mesquite, TX 75149",32.778683,-96.598233,DALLAS,9722162300,34
METHODIST DALLAS MEDICAL CENTER,1441 NORTH BECKLEY AVENUE,DALLAS,TX,75203,"1441 N Beckley Ave, Dallas, TX 75203",32.76156,-96.825026,DALLAS,2149478181,331
METHODIST CHARLTON MEDICAL CENTER,3500 W WHEATLAND RD,DALLAS,TX,75237,"3500 W Wheatland Rd, Dallas, TX 75237",32.64507,-96.876347,DALLAS,2149477777,197
METHODIST HOSPITAL,7700 FLOYD CURL DRIVE,SAN ANTONIO,TX,78229,"7700 Floyd Curl Dr, San Antonio, TX 78229",29.507191,-98.572298,BEXAR,2105754000,572
METHODIST HOSPITAL | ATASCOSA,1905 HIGHWAY 97 EAST,JOURDANTON,TX,78026,"1905 E State Highway 97, Jourdanton, TX 78026",28.932145,-98.525348,ATASCOSA,8307693515,61
METHODIST HOSPITAL | STONE OAK,1139 EAST SONTERRA BLVD,SAN ANTONIO,TX,78258,"1139 E Sonterra Blvd, San Antonio, TX 78258",29.615388,-98.476211,BEXAR,2106382000,145
METHODIST HOSPITAL FOR SURGERY,17101 DALLAS PARKWAY,ADDISON,TX,75001,"17101 Dallas Pkwy, Addison, TX 75001",32.985218,-96.829438,DALLAS,4692483900,28
METHODIST HOSPITAL HILL COUNTRY,1020 STATE HIGHWAY 16 SOUTH,FREDERICKSBURG,TX,78624,"1020 State Hwy 16, Fredericksburg, TX 78624",30.282365,-98.862719,GILLESPIE,8309905032,66
METHODIST MANSFIELD MEDICAL CENTER,2700 E BROAD ST,MANSFIELD,TX,76063,"2700 E Broad St, Mansfield, TX 76063",32.568385,-97.094466,TARRANT,6822426000,164
METHODIST MCKINNEY HOSPITAL LLC,8000 WEST ELDORADO PARKWAY,MCKINNEY,TX,75070,"8000 Eldorado Pkwy, McKinney, TX 75070",33.176569,-96.722498,COLLIN,9725692700,23
METHODIST MIDLOTHIAN MEDICAL CENTER,1201 EAST US HIGHWAY 287,MIDLOTHIAN,TX,76065,"1201 E US Highway 287, Midlothian, TX 76065",32.469092,-96.981889,ELLIS,4698462000,30
METHODIST RICHARDSON MEDICAL CENTER,2831 E PRES GEORGE BUSH HWY,RICHARDSON,TX,75082,"Richardson, TX 75082",32.979315,-96.69137,COLLIN,4692042000,112
METHODIST RICHARDSON MEDICAL CENTER CAMPUS FOR CONTINUING CARE,401 W CAMPBELL ROAD,RICHARDSON,TX,75080,"401 W Campbell Rd, Richardson, TX 75080",32.974164,-96.726424,DALLAS,4692042000,81
METHODIST SOUTHLAKE MEDICAL CENTER,421 EAST STATE HWY 114,SOUTHLAKE,TX,76092,"371 State St, Southlake, TX 76092",32.945015,-97.131482,TARRANT,8178654501,48
METHODIST SPECIALTY & TRANSPLANT HOSPITAL,8026 FLOYD CURL DRIVE,SAN ANTONIO,TX,78229,"8026 Floyd Curl Dr, San Antonio, TX 78229",29.513915,-98.576438,BEXAR,2105758110,247
"METHODIST TEXSAN HOSPITAL, A METHODIST HOSPITAL FACILITY",6700 IH-10 WEST,SAN ANTONIO,TX,78201,"6700 I-10 W, San Antonio, TX 78201",29.489745,-98.547459,BEXAR,2107368001,60
METROPOLITAN METHODIST HOSPITAL,1310 MCCULLOUGH AVENUE,SAN ANTONIO,TX,78212,"1310 McCullough Ave, San Antonio, TX 78212",29.441133,-98.491008,BEXAR,2107572200,216
MID COAST MEDICAL CENTER - CENTRAL,200 W OLLIE ST,LLANO,TX,78643,"200 W Ollie St, Llano, TX 78643",30.742783,-98.677875,LLANO,2452422824,25
MID-JEFFERSON EXTENDED CARE HOSPITAL,2600 HIGHWAY 365,NEDERLAND,TX,77627,"2600 Highway 365, Nederland, TX 77627",29.955535,-93.986453,JEFFERSON,4097268700,41
MID-JEFFERSON EXTENDED CARE HOSPITAL OF BEAUMONT,860 SOUTH EIGHTH STREET,BEAUMONT,TX,77701,"860 8th St S, Beaumont, TX 77701",30.069558,-94.125215,JEFFERSON,4097268700,20
MIDLAND MEMORIAL HOSPITAL,400 ROSALIND REDFERN GROVER PKWY,MIDLAND,TX,79701,"400 Rosalind Redfern Grover Pkwy, Midland, TX 79701",31.997566,-102.100201,MIDLAND,4322211111,385
MISSION REGIONAL MEDICAL CENTER,900 SOUTH BRYAN ROAD,MISSION,TX,78572,"900 S Bryan Rd, Mission, TX 78572",26.196411,-98.313817,HIDALGO,9563239103,191
MISSION TRAIL BAPTIST HOSPITAL,3333 RESEARCH PLAZA,SAN ANTONIO,TX,78235,"3333 Research Plz, San Antonio, TX 78235",29.344319,-98.43804,BEXAR,2102973600,66
MITCHELL COUNTY HOSPITAL,997 WEST I-20,COLORADO CITY,TX,79512,"997 W Interstate Highway 20 I 20, Colorado City, TX 79512",32.406501,-100.87594,MITCHELL,3257283431,25
MUENSTER MEMORIAL HOSPITAL,605 NORTH MAPLE STREET,MUENSTER,TX,76252,"605 N Maple St, Muenster, TX 76252",33.654776,-97.379837,COOKE,9407592271,18
MULESHOE AREA MEDICAL CENTER,708 SOUTH FIRST STREET,MULESHOE,TX,79347,"708 S 1st St, Muleshoe, TX 79347",34.220943,-102.728788,BAILEY,8062724524,25
NACOGDOCHES MEDICAL CENTER,4920 N E STALLINGS DRIVE,NACOGDOCHES,TX,75965,"4920 NE Stallings Dr, Nacogdoches, TX 75965",31.653211,-94.653926,NACOGDOCHES,9365699481,130
NACOGDOCHES MEMORIAL HOSPITAL,1204 NORTH MOUND STREET,NACOGDOCHES,TX,75961,"1204 N Mound St, Nacogdoches, TX 75961",31.612936,-94.648719,NACOGDOCHES,9365644611,128
NAVARRO REGIONAL HOSPITAL,3201 WEST HIGHWAY 22,CORSICANA,TX,75110,"3201 W State Highway 22, Corsicana, TX 75110",32.083865,-96.503734,NAVARRO,9036546805,147
NEW BRAUNFELS ER & HOSPITAL,3221 COMMERCIAL CIRCLE,NEW BRAUNFELS,TX,78132,"3221 Commercial Cir, New Braunfels, TX 78132",29.674496,-98.156196,COMAL,7136600557,4
NEXUS CHILDRENS HOSPITAL - THE WOODLANDS,9182 SIX PINES DRIVE,SPRING,TX,77380,"9182 6 Pines Dr, Spring, TX 77380",30.172433,-95.460726,MONTGOMERY,7134823325,21
NEXUS SPECIALTY HOSPITAL -THE WOODLANDS LTD-SHENANDOAH CAMPUS,123 VISION PARK BLVD,SHENANDOAH,TX,77384,"123 Vision Park Blvd, Shenandoah, TX 77384",30.188751,-95.459976,MONTGOMERY,2813640317,21
NOCONA GENERAL HOSPITAL,100 PARK ROAD,NOCONA,TX,76255,"100 Park Rd, Nocona, TX 76255",33.777263,-97.732666,MONTAGUE,9408253235,22
NORTH AUSTIN MEDICAL CENTER,12221 MOPAC EXPRESSWAY NORTH,AUSTIN,TX,78758,"N Mo-Pac Expy, Austin, TX 78759",30.376097,-97.738627,TRAVIS,5129012529,213
NORTH CENTRAL BAPTIST HOSPITAL,520 MADISON OAK,SAN ANTONIO,TX,78258,"520 Madison Oak Dr, San Antonio, TX 78258",29.620513,-98.491862,BEXAR,2102974600,178
NORTH CENTRAL SURGICAL CENTER LLP,9301 NORTH CENTRAL EXPRESSWAY #100,DALLAS,TX,75231,"9301 N Central Expy, Ste 100, Dallas, TX 75231",32.875672,-96.771293,DALLAS,2142652810,23
NORTH RUNNELS HOSPITAL,7821 STATE HIGHWAY 153,WINTERS,TX,79567,"7821 State Highway 153, Winters, TX 79567",31.949237,-99.959275,RUNNELS,3257544553,25
NORTH TEXAS MEDICAL CENTER,1900 HOSPITAL BOULEVARD,GAINESVILLE,TX,76240,"1900 Hospital Blvd, Gainesville, TX 76240",33.641354,-97.162089,COOKE,9406651751,42
NORTHEAST BAPTIST HOSPITAL,8811 VILLAGE DRIVE,SAN ANTONIO,TX,78217,"8811 Village Dr, San Antonio, TX 78217",29.520442,-98.428742,BEXAR,2102972600,280
NORTHEAST METHODIST HOSPITAL,12412 JUDSON ROAD,SAN ANTONIO,TX,78233,"12412 Judson Rd, Live Oak, TX 78233",29.552277,-98.347883,BEXAR,2107577000,156
NORTHWEST HILLS SURGICAL HOSPITAL,6818 AUSTIN CENTER BOULEVARD,AUSTIN,TX,78731,"6818 Austin Center Blvd, Austin, TX 78731",30.350594,-97.751781,TRAVIS,5123461994,8
NORTHWEST TEXAS HOSPITAL,1501 SOUTH COULTER STREET,AMARILLO,TX,79106,"1501 S Coulter St, Amarillo, TX 79106",35.199823,-101.920803,POTTER,8063541000,141
NORTHWEST TEXAS SURGERY CENTER,3501 SONCY ROAD SUITE 118,AMARILLO,TX,79119,"3501 Soncy Rd, Ste 118, Amarillo, TX 79119",35.175354,-101.937984,RANDALL,8063597999,4
OAKBEND MEDICAL CENTER,1705 JACKSON STREET,RICHMOND,TX,77469,"1705 Jackson St, Richmond, TX 77469",29.577706,-95.770969,FORT BEND,2813413000,90
OAKBEND MEDICAL CENTER,22003 SOUTHWEST FREEWAY,RICHMOND,TX,77469,"22003 Southwest Fwy, Richmond, TX 77469",29.55578,-95.713908,FORT BEND,2813412000,16
OAKBEND MEDICAL CENTER - WHARTON HOSPITAL CAMPUS,10141 HWY 59 ROAD,WHARTON,TX,77488,"10141 US Hwy 59, Wharton, TX 77488",29.329637,-96.120308,WHARTON,2813414812,33
OCHILTREE GENERAL HOSPITAL,3101 GARRETT DRIVE,PERRYTON,TX,79070,"3101 Garrett Dr, Perryton, TX 79070",36.370026,-100.798743,OCHILTREE,8064353606,20
ODESSA REGIONAL MEDICAL CENTER,520 EAST SIXTH STREET,ODESSA,TX,79761,"520 E 6th St, Odessa, TX 79761",31.851086,-102.365556,ECTOR,4325828000,79
OMNIPOINT HEALTH HOSPITAL,200 HOSPITAL DRIVE,ANAHUAC,TX,77514,"200 Hospital Dr, Anahuac, TX 77514",29.75315,-94.686947,CHAMBERS,4092673143,13
OTTO KAISER MEMORIAL HOSPITAL,3349 S HIGHWAY 181,KENEDY,TX,78119,"3349 S US Highway 181, Kenedy, TX 78119",28.849428,-97.879182,KARNES,8305833401,25
PALACIOS COMMUNITY MEDICAL CENTER,311 GREEN AVENUE,PALACIOS,TX,77465,"311 Green Ave, Palacios, TX 77465",28.717294,-96.212796,MATAGORDA,3619722511,17
PALESTINE REGIONAL MEDICAL CENTER,2900 SOUTH LOOP 256,PALESTINE,TX,75801,"2900 S Loop 256, Palestine, TX 75801",31.732762,-95.627274,ANDERSON,9037311184,66
PALO PINTO GENERAL HOSPITAL,400 SOUTHWEST 25TH AVENUE,MINERAL WELLS,TX,76067,"400 SW 25th Ave, Mineral Wells, TX 76067",32.799185,-98.145012,PALO PINTO,9403257891,66
PAM HEALTH REHABILITATION HOSPITAL OF EL PASO,1600 E CLIFF DRIVE,EL PASO,TX,79902,"1600 E Cliff Dr, El Paso, TX 79902",31.776759,-106.479661,EL PASO,9159758630,12
PAM SPECIALTY HOSPITAL OF CORPUS CHRISTI BAYFRONT,345 S WATER ST 3RD FLOOR,CORPUS CHRISTI,TX,78401,"345 S Water St, Fl 3, Corpus Christi, TX 78401",27.789854,-97.394953,NUECES,3615000600,19
PAM SPECIALTY HOSPITAL OF CORPUS CHRISTI NORTH,600 ELIZABETH STREET 3RD FLOOR,CORPUS CHRISTI,TX,78404,"608 Elizabeth Ave, Fl 3, Kingsville, TX 78363",27.500942,-97.861277,NUECES,3618813223,22
PAM SPECIALTY HOSPITAL OF LULING,200 MEMORIAL DRIVE,LULING,TX,78648,"200 Memorial Dr, Luling, TX 78648",29.674108,-97.654837,CALDWELL,8308758400,17
PAM SPECIALTY HOSPITAL OF NEW BRAUNFELS,1445 HANZ DRIVE,NEW BRAUNFELS,TX,78130,"1445 Hanz Dr, New Braunfels, TX 78130",29.729351,-98.102849,COMAL,8306277600,16
PAM SPECIALTY HOSPITAL OF SAN ANTONIO,5418 N LOOP 1604 WEST,SAN ANTONIO,TX,78249,"5418 N Loop 1604 W, San Antonio, TX 78249",29.59022,-98.591613,BEXAR,2106004600,26
PAM SPECIALTY HOSPITAL OF SAN ANTONIO MEDICAL CENTER,8902 FLOYD CURL DRIVE,SAN ANTONIO,TX,78240,"8902 Floyd Curl Dr, San Antonio, TX 78240",29.526561,-98.590482,BEXAR,7177319660,52
PAM SPECIALTY HOSPITAL OF TEXARKANA NORTH,2400 ST MICHAEL DRIVE 2ND FLOOR,TEXARKANA,TX,75503,"2400 St Michael Dr, Fl 2, Texarkana, TX 75503",33.465181,-94.071035,BOWIE,9036147600,30
PAM SPECIALTY HOSPITAL OF VICTORIA NORTH,102 MEDICAL DRIVE,VICTORIA,TX,77904,"102 Medical Dr, Victoria, TX 77904",28.854969,-97.021953,VICTORIA,3615766200,11
PAM SPECIALTY HOSPITAL OF VICTORIA SOUTH,506 EAST SAN ANTONIO STREET 3RD FLOOR,VICTORIA,TX,77901,"506 E San Antonio St, Fl 3, Victoria, TX 77901",28.808086,-96.998618,VICTORIA,3614857300,23
PAM SPECIALTY HOSPITAL OF VICTORIA SOUTHEAST,2701 HOSPITAL DR 6TH FLOOR,VICTORIA,TX,77901,"2701 Hospital Dr, Fl 6, Victoria, TX 77901",28.81309,-96.977678,VICTORIA,3612371957,20
PAMPA REGIONAL MEDICAL CENTER,ONE MEDICAL PLAZA,PAMPA,TX,79065,"1 Medical Plz, Pampa, TX 79065",35.572395,-100.964068,GRAY,8066653721,19
PARIS REGIONAL MEDICAL CENTER NORTH CAMPUS,865 DESHONG DRIVE,PARIS,TX,75460,"865 Deshong Dr, Paris, TX 75460",33.688124,-95.547096,LAMAR,9037371111,101
PARKLAND MEMORIAL HOSPITAL,5200 - 5201 HARRY HINES BOULEVARD,DALLAS,TX,75235,"5201 Harry Hines Blvd, Dallas, TX 75235",32.811035,-96.837839,DALLAS,2145900356,459
PARKVIEW HOSPITAL,901 SWEETWATER STREET,WHEELER,TX,79096,"901 S Sweetwater St, Wheeler, TX 79096",35.439395,-100.270448,WHEELER,8068265581,16
PARKVIEW REGIONAL HOSPITAL,600 SOUTH BONHAM,MEXIA,TX,76667,"600 S Bonham St, Mexia, TX 76667",31.675021,-96.480021,LIMESTONE,2545625332,43
PARMER MEDICAL CENTER,1307 CLEVELAND STREET,FRIONA,TX,79035,"1307 Cleveland Ave, Friona, TX 79035",34.643983,-102.72175,PARMER,8062502754,25
PATIENTS EMERGENCY ROOM AND HOSPITAL,10133 INTERSTATE 10 EAST,BAYTOWN,TX,77521,"10133 I-10, Baytown, TX 77521",29.822362,-94.902171,CHAMBERS,2815760555,5
PECOS COUNTY MEMORIAL HOSPITAL,387 WEST I H 10,FORT STOCKTON,TX,79735,"417 E I-10 H 10, Fort Stockton, TX 79735",30.907185,-102.871115,PECOS,4323364201,22
PERMIAN REGIONAL MEDICAL CENTER,720 HOSPITAL DRIVE,ANDREWS,TX,79714,"720 Hospital Dr, Andrews, TX 79714",32.337516,-102.546351,ANDREWS,4324642103,28
PETERSON REGIONAL MEDICAL CENTER,551 HILL COUNTRY DRIVE,KERRVILLE,TX,78028,"551 Hill Country Dr S, Kerrville, TX 78028",30.043795,-99.152235,KERR,8308964200,72
PHYSICIANS SURGICAL HOSPITALS LLC,6819 PLUM CREEK DRIVE,AMARILLO,TX,79124,"6819 Plum Creek Dr, Amarillo, TX 79124",35.210562,-101.91272,POTTER,8063546100,19
PHYSICIANS SURGICAL HOSPITALS LLC,7100 WEST 9TH AVENUE,AMARILLO,TX,79106,"7100 SW 9th Ave, Amarillo, TX 79106",35.206669,-101.918619,POTTER,8062120247,21
PLAINS MEMORIAL HOSPITAL,310 WEST HALSELL,DIMMITT,TX,79027,"310 W Halsell St, Dimmitt, TX 79027",34.556058,-102.316005,CASTRO,8066472191,17
RANKIN COUNTY HOSPITAL DISTRICT,1611 SPUR 576 (BROADWAY STREET),RANKIN,TX,79778,"1611 576th Spur, Rankin, TX 79778",31.232837,-101.934372,UPTON,4326931200,15
REAGAN MEMORIAL HOSPITAL,1300 N MAIN AVE,BIG LAKE,TX,76932,"1300 N Main Ave, Big Lake, TX 76932",31.203528,-101.461544,REAGAN,3258842561,7
REEVES REGIONAL HEALTH,2349 MEDICAL DRIVE,PECOS,TX,79772,"Pecos, TX 79772",31.446678,-103.57906,REEVES,4324473551,19
REFUGIO COUNTY MEMORIAL HOSPITAL DISTRICT,107 SWIFT STREET,REFUGIO,TX,78377,"107 Swift St, Refugio, TX 78377",28.306293,-97.27953,REFUGIO,3615262321,20
REHABILITATION HOSPITAL AT RENAISSANCE,5403 DOCTORS DRIVE,EDINBURG,TX,78539,"5403 Doctors Dr, Edinburg, TX 78539",26.255222,-98.206321,HIDALGO,9563623550,8
RESOLUTE BAPTIST HOSPITAL,555 CREEKSIDE CROSSING,NEW BRAUNFELS,TX,78130,"555 Creekside Xing, New Braunfels, TX 78130",29.721947,-98.070208,COMAL,8305006602,78
RICE MEDICAL CENTER,600 SOUTH AUSTIN ROAD,EAGLE LAKE,TX,77434,"600 S Austin Rd, Eagle Lake, TX 77434",29.587677,-96.345532,COLORADO,9792345571,22
RIO GRANDE REGIONAL HOSPITAL,101 E RIDGE ROAD,MCALLEN,TX,78503,"101 E Ridge Rd, McAllen, TX 78503",26.186287,-98.222486,HIDALGO,9566326000,167
RIVER OAKS HOSPITALS & CLINICS,4200 TWELVE OAKS DRIVE,HOUSTON,TX,77027,"Twelve Oaks Dr, Houston, TX 77024",29.780571,-95.496946,HARRIS,7133303887,50
ROLLING PLAINS MEMORIAL HOSPITAL,200 EAST ARIZONA,SWEETWATER,TX,79556,"200 E Arizona Ave, Sweetwater, TX 79556",32.453553,-100.397509,NOLAN,3252351701,71
ROUND ROCK MEDICAL CENTER,2400 ROUND ROCK AVENUE,ROUND ROCK,TX,78681,"2400 Round Rock Ave, Round Rock, TX 78681",30.510718,-97.713493,WILLIAMSON,5123411000,90
SABINE COUNTY HOSPITAL,2301 WORTH ST,HEMPHILL,TX,75948,"2301 Worth St, Hemphill, TX 75948",31.333919,-93.863163,SABINE,4097873300,25
"SCENIC MOUNTAIN MEDICAL CENTER, A STEWARD FAMILY HOSPITAL",1601 WEST ELEVENTH PLACE,BIG SPRING,TX,79720,"Big Spring, TX 79720",32.278703,-101.457761,HOWARD,4322684903,118
SCHLEICHER COUNTY MEDICAL CENTER,102 NORTH HIGHWAY 277,ELDORADO,TX,76936,"102 N US Highway 277, Eldorado, TX 76936",30.870666,-100.592469,SCHLEICHER,3258532507,8
SE TEXAS ER AND HOSPITAL,19211 MCKAY BLVD,HUMBLE,TX,77338,"19211 McKay Blvd, Humble, TX 77338",29.998641,-95.276242,HARRIS,2818835500,35
SELECT SPECIALTY HOSPITAL - DALLAS (DOWNTOWN),3500 GASTON AVENUE 3RD AND 4TH FLOORS,DALLAS,TX,75246,"3500 Gaston Ave, Dallas, TX 75246",32.790908,-96.779474,DALLAS,9722270093,20
SELECT SPECIALTY HOSPITAL - DALLAS PLANO,1100 ALLIED DR 4TH FLOOR,PLANO,TX,75093,"1100 Allied Dr, Fl 4, Plano, TX 75093",33.015728,-96.790313,COLLIN,4698921400,30
"SELECT SPECIALTY HOSPITAL-LONGVIEW, INC.",700 EAST MARSHALL AVENUE 1ST AND GROUND FLOORS,LONGVIEW,TX,75601,"700 E Marshall Ave, Longview, TX 75601",32.500863,-94.730171,GREGG,9033151105,32
SETON MEDICAL CENTER HARKER HEIGHTS,850 WEST CENTRAL TEXAS EXPRESSWAY,HARKER HEIGHTS,TX,76548,"850 W Central Texas Expy, Harker Heights, TX 76548",31.072602,-97.682833,BELL,2546900900,55
SEYMOUR HOSPITAL,200 STADIUM DRIVE,SEYMOUR,TX,76380,"200 Stadium Dr, Seymour, TX 76380",33.592128,-99.247398,BAYLOR,9408895572,21
SHAMROCK GENERAL HOSPITAL,1000 S MAIN ST,SHAMROCK,TX,79079,"1000 S Main St, Shamrock, TX 79079",35.199114,-100.24803,WHEELER,8062562114,25
SHANNON MEDICAL CENTER,120 E HARRIS AVE,SAN ANGELO,TX,76903,"120 E Harris Ave, San Angelo, TX 76903",31.465082,-100.434641,TOM GREEN,3256536741,261
SHANNON MEDICAL CENTER SOUTH,3501 KNICKERBOCKER RD,SAN ANGELO,TX,76904,"3501 Knickerbocker Rd, San Angelo, TX 76904",31.418433,-100.46964,TOM GREEN,3259499511,153
SHANNON MEDICAL CENTER ST JOHNS CAMPUS,2018 PULLIAM STREET,SAN ANGELO,TX,76905,"2018 Pulliam St, San Angelo, TX 76905",31.471467,-100.402302,TOM GREEN,3256536741,30
SHRINERS HOSPITALS FOR CHILDREN,815 MARKET STREET,GALVESTON,TX,77550,"815 Market St, Galveston, TX 77550",29.309717,-94.776737,GALVESTON,4097706600,30
SOLARA SPECIALTY HOSPITALS HARLINGEN,508 VICTORIA LANE,HARLINGEN,TX,78550,"508 Victoria Ln, Harlingen, TX 78550",26.161525,-97.672292,CAMERON,9564259600,35
SOLARA SPECIALTY HOSPITALS HARLINGEN - BROWNSVILLE,333 LORENALY DRIVE,BROWNSVILLE,TX,78520,"333 Lorenaly Dr, Brownsville, TX 78526",25.97362,-97.510685,CAMERON,9565460808,35
SOLARA SPECIALTY HOSPITALS MCALLEN,301 WEST EXPRESSWAY 83 8TH FLOOR,MCALLEN,TX,78503,"301 Expwy, Fl 8, McAllen, TX 78503",26.186457,-98.225692,HIDALGO,9566324880,47
SOUTH TEXAS HEALTH SYSTEM EDINBURG,1102 WEST TRENTON ROAD,EDINBURG,TX,78539,"1102 W Trenton Rd, Edinburg, TX 78539",26.261293,-98.181844,HIDALGO,9563886000,103
SOUTH TEXAS HEALTH SYSTEM HEART,1900 SOUTH D STREET,MCALLEN,TX,78503,"1900 S D St, McAllen, TX 78503",26.183853,-98.218108,HIDALGO,9569942000,47
SOUTH TEXAS HEALTH SYSTEM MCALLEN,301 WEST EXPRESSWAY 83,MCALLEN,TX,78503,"301 Expwy 83, McAllen, TX 78503",26.186457,-98.225692,HIDALGO,9566324000,300
SOUTH TEXAS SPINE & SURGICAL HOSPITAL,18600 NORTH HARDY OAK BOULEVARD,SAN ANTONIO,TX,78258,"18600 Hardy Oak Blvd, San Antonio, TX 78258",29.613359,-98.47755,BEXAR,2105074091,28
SOUTH TEXAS SURGICAL HOSPITAL,6130 PARKWAY DRIVE,CORPUS CHRISTI,TX,78414,"6130 Parkway Dr, Corpus Christi, TX 78414",27.686876,-97.375079,NUECES,3619932000,31
SPRING HOSPITAL,20635 KUYKENDAHL ROAD,SPRING,TX,77379,"20635 Kuykendahl Rd, Spring, TX 77379",30.069105,-95.508451,HARRIS,3463314040,9
ST DAVIDS GEORGETOWN HOSPITAL A ST DAVIDS MEDICAL CENTER FACILI,2000 SCENIC DRIVE,GEORGETOWN,TX,78626,"2000 Scenic Dr, Georgetown, TX 78626",30.626493,-97.688147,WILLIAMSON,5129433000,51
ST DAVIDS MEDICAL CENTER,919 E 32ND STREET,AUSTIN,TX,78705,"919 E 32nd St, Austin, TX 78705",30.290681,-97.726745,TRAVIS,5124767111,188
ST DAVIDS SOUTH AUSTIN MEDICAL CENTER,901 W BEN WHITE BLVD,AUSTIN,TX,78704,"901 W Ben White Blvd, Austin, TX 78704",30.227468,-97.773479,TRAVIS,5124472211,263
ST DAVIDS SURGICAL HOSPITAL A CAMPUS OF NORTH AUSTIN MEDICAL CTR,1201 W LOUIS HENNA BLVD,AUSTIN,TX,78681,"1201 W Louis Henna Blvd, Austin, TX 78681",30.477073,-97.690592,WILLIAMSON,5129011000,20
ST JOSEPH MEDICAL CENTER,1401 ST JOSEPH PARKWAY,HOUSTON,TX,77002,"1401 St Joseph Pkwy, Houston, TX 77002",29.748091,-95.366207,HARRIS,7137565007,482
ST JOSEPH REGIONAL HEALTH CENTER,2801 FRANCISCAN DRIVE,BRYAN,TX,77802,"2801 Franciscan Dr, Bryan, TX 77802",30.655929,-96.346726,BRAZOS,9797763777,162
ST LUKES BAPTIST HOSPITAL,7930 FLOYD CURL DRIVE,SAN ANTONIO,TX,78229,"7930 Floyd Curl Dr, San Antonio, TX 78229",29.512373,-98.574718,BEXAR,2102975600,160
ST LUKES HOSPITAL AT THE VINTAGE,20171 CHASEWOOD PARK DR,HOUSTON,TX,77070,"20171 Chasewood Park Dr, Houston, TX 77070",29.989252,-95.567478,HARRIS,8325345000,76
ST LUKES LAKESIDE HOSPITAL LLC,17400 ST LUKES WAY,THE WOODLANDS,TX,77384,"17400 St Lukes Way, Conroe, TX 77384",30.202798,-95.458451,MONTGOMERY,9362669110,24
ST LUKES PATIENTS MEDICAL CENTER,4600 EAST SAM HOUSTON PARKWAY SOUTH,PASADENA,TX,77505,"4600 E Sam Houston Pkwy S, Pasadena, TX 77505",29.641373,-95.16191,HARRIS,7139487000,53
ST LUKES SUGAR LAND HOSPITAL,1317 LAKE POINTE PARKWAY,SUGAR LAND,TX,77478,"1317 Lake Pointe Pkwy, Sugar Land, TX 77478",29.603754,-95.620268,FORT BEND,2816377000,64
ST LUKES THE WOODLANDS HOSPITAL,17200 ST LUKES WAY,THE WOODLANDS,TX,77384,"17200 St Lukes Way, Conroe, TX 77384",30.205221,-95.458625,MONTGOMERY,9362662000,154
ST MARKS MEDICAL CENTER,ONE ST MARKS PLACE,LA GRANGE,TX,78945,"1 St Marks Pl, La Grange, TX 78945",29.935159,-96.876747,FAYETTE,9792422102,38
ST MICHAELS ELITE HOSPITAL,16000 SOUTHWEST FREEWAY SUITE 100,SUGAR LAND,TX,77479,"16000 Southwest Fwy, Ste 100, Sugar Land, TX 77479",29.598135,-95.624316,FORT BEND,2819804357,7
STARR COUNTY MEMORIAL HOSPITAL,128 NORTH FM ROAD 3167,RIO GRANDE CITY,TX,78582,"128 N FM 3167, Rio Grande City, TX 78582",26.376663,-98.858984,STARR,9564875561,45
STAT SPECIALTY HOSPITAL,2600 VETERANS BLVD,DEL RIO,TX,78840,"2600 Veterans Blvd, Del Rio, TX 78840",29.399768,-100.905006,VAL VERDE,8304983000,3
STAT SPECIALTY HOSPITAL OF EAGLE PASS,2114 N VETERANS BLVD,EAGLE PASS,TX,78852,"2114 N Veterans Blvd, Eagle Pass, TX 78852",28.720425,-100.476064,MAVERICK,8305223000,4
STAT SPECIALTY HOSPITAL OF LAREDO,2502 NE BOB BULLOCK LOOP,LAREDO,TX,78045,"2518 NE Bob Bullock Loop, Laredo, TX 78045",27.613834,-99.467364,WEBB,9567913000,4
STEPHENS MEMORIAL HOSPITAL,200 SOUTH GENEVA,BRECKENRIDGE,TX,76424,"200 S Geneva Ave, Breckenridge, TX 76424",32.754072,-98.88745,STEPHENS,2545592241,37
STONEWALL MEMORIAL HOSPITAL,821 N BROADWAY,ASPERMONT,TX,79502,"821 N Broadway St, Aspermont, TX 79502",33.150522,-100.229136,STONEWALL,9409893551,20
SURGERY SPECIALTY HOSPITALS OF AMERICA SOUTHEAST HOUSTON,4301-B VISTA,PASADENA,TX,77504,"Pasadena, TX 77504",29.645312,-95.176291,HARRIS,7133783000,32
SWEENY COMMUNITY HOSPITAL,305 NORTH MCKINNEY STREET,SWEENY,TX,77480,"305 N McKinney St, Sweeny, TX 77480",29.048286,-95.691495,BRAZORIA,9795481598,18
SWISHER MEMORIAL HOSPITAL,539 SE 2ND ST,TULIA,TX,79088,"539 SE 2nd St, Tulia, TX 79088",34.535991,-101.756011,SWISHER,8069953581,20
TEXARKANA EMERGENCY CENTER & HOSPITAL,4646 COWHORN CREEK RD,TEXARKANA,TX,75503,"4646 Cowhorn Creek Rd, Texarkana, TX 75503",33.458183,-94.075751,BOWIE,7136600557,4
TEXAS HEALTH ARLINGTON MEMORIAL HOSPITAL,800 W RANDOL MILL RD,ARLINGTON,TX,76012,"800 W Randol Mill Rd, Arlington, TX 76012",32.751423,-97.114841,TARRANT,8179606535,223
TEXAS HEALTH CENTER FOR DIAGNOSTICS & SURGERY PLANO,6020 WEST PARKER ROAD,PLANO,TX,75093,"6020 W Parker Rd, Plano, TX 75093",33.043741,-96.831958,COLLIN,9724032700,18
TEXAS HEALTH HARRIS METHODIST HOSPITAL ALLIANCE,10864 TEXAS HEALTH TRL,FORT WORTH,TX,76244,"10864 Texas Health Trl, Fort Worth, TX 76244",32.897857,-97.314045,TARRANT,6822122000,76
TEXAS HEALTH HARRIS METHODIST HOSPITAL AZLE,108 DENVER TRL,AZLE,TX,76020,"108 Denver Trl, Azle, TX 76020",32.880904,-97.533101,TARRANT,8174448600,30
TEXAS HEALTH HARRIS METHODIST HOSPITAL CLEBURNE,201 WALLS DRIVE,CLEBURNE,TX,76033,"201 Walls Dr, Cleburne, TX 76033",32.331749,-97.438415,JOHNSON,8176412551,130
TEXAS HEALTH HARRIS METHODIST HOSPITAL FORT WORTH,1301 PENNSYLVANIA AVE,FORT WORTH,TX,76104,"1301 Pennsylvania Ave, Fort Worth, TX 76104",32.736811,-97.33891,TARRANT,8172502000,460
TEXAS HEALTH HARRIS METHODIST HOSPITAL HURST-EULESS-BEDFORD,1600 HOSPITAL PKWY,BEDFORD,TX,76022,"1600 Hospital Pkwy, Bedford, TX 76022",32.835072,-97.123334,TARRANT,8178484602,162
TEXAS HEALTH HARRIS METHODIST HOSPITAL SOUTHLAKE,1545 E SOUTHLAKE BLVD,SOUTHLAKE,TX,76092,"1545 E Southlake Blvd, Southlake, TX 76092",32.939617,-97.128412,TARRANT,8177488780,17
TEXAS HEALTH HARRIS METHODIST HOSPITAL SOUTHWEST FORT WORTH,6100 HARRIS PKWY,FORT WORTH,TX,76132,"6100 Harris Pkwy, Fort Worth, TX 76132",32.657808,-97.420746,TARRANT,8174335000,96
TEXAS HEALTH HARRIS METHODIST HOSPITAL STEPHENVILLE,411 N BELKNAP ST,STEPHENVILLE,TX,76401,"411 N Belknap St, Stephenville, TX 76401",32.222262,-98.204054,ERATH,2549651500,89
TEXAS HEALTH HEART & VASCULAR HOSPITAL ARLINGTON,811 WRIGHT ST,ARLINGTON,TX,76012,"811 Wright St, Arlington, TX 76012",32.748355,-97.117026,TARRANT,8179603500,27
TEXAS HEALTH HOSPITAL CLEARFORK,5400 CLEARFORK MAIN ST,FORT WORTH,TX,76109,"5400 Clearfork Main St, Fort Worth, TX 76109",32.707511,-97.402192,TARRANT,8174337010,48
TEXAS HEALTH HOSPITAL FRISCO,12400 DALLAS PKWY,FRISCO,TX,75033,"12400 Dallas Pkwy, Frisco, TX 75033",33.181516,-96.837082,COLLIN,4694952000,30
TEXAS HEALTH HOSPITAL MANSFIELD,2300 LONE STAR ROAD,MANSFIELD,TX,76063,"2300 Lone Star Rd, Mansfield, TX 76063",32.537001,-97.099405,JOHNSON,6823415000,36
TEXAS HEALTH HOSPITAL ROCKWALL,3150 HORIZON ROAD,ROCKWALL,TX,75032,"3150 Horizon Rd, Rockwall, TX 75032",32.884889,-96.465807,ROCKWALL,4696981000,32
TEXAS HEALTH HUGULEY HOSPITAL,11801 SOUTH FREEWAY,BURLESON,TX,76028,"11801 South Fwy, Burleson, TX 76028",32.586584,-97.316183,TARRANT,8172939110,179
TEXAS HEALTH PRESBYTERIAN HOSPITAL ALLEN,1105 CENTRAL EXPY N,ALLEN,TX,75013,"1105 N Central Expy, Allen, TX 75013",33.116231,-96.673545,COLLIN,9727471000,45
TEXAS HEALTH PRESBYTERIAN HOSPITAL DALLAS,8200 WALNUT HILL LN,DALLAS,TX,75231,"8200 Walnut Hill Ln, Dallas, TX 75231",32.879541,-96.761274,DALLAS,2143456789,582
TEXAS HEALTH PRESBYTERIAN HOSPITAL DENTON,3000 I 35 NORTH,DENTON,TX,76201,"3008 S I-35 E, Denton, TX 76210",33.17919,-97.099445,DENTON,9408987191,189
TEXAS HEALTH PRESBYTERIAN HOSPITAL FLOWER MOUND,4400 LONG PRAIRIE ROAD,FLOWER MOUND,TX,75028,"4400 Long Prairie Rd, Flower Mound, TX 75028",33.045566,-97.06763,DENTON,4693227000,56
TEXAS HEALTH PRESBYTERIAN HOSPITAL KAUFMAN,850 ED HALL DRIVE,KAUFMAN,TX,75142,"850 Ed Hall Dr, Kaufman, TX 75142",32.59219,-96.318447,KAUFMAN,9729327200,73
TEXAS HEALTH PRESBYTERIAN HOSPITAL PLANO,6200 W PARKER RD,PLANO,TX,75093,"6200 W Parker Rd, Plano, TX 75093",33.044047,-96.838405,COLLIN,9729818000,184
TEXAS HEALTH SPECIALTY HOSPITAL FORT WORTH,1301 PENNSYLVANIA AVENUE 4TH FLOOR,FORT WORTH,TX,76104,"1301 Pennsylvania Ave, Fl 4, Fort Worth, TX 76104",32.736811,-97.33891,TARRANT,8172505500,15
TEXAS INSTITUTE FOR SURGERY AT TEXAS HEALTH PRESBYTERIAN DALLAS,7115 GREENVILLE AVENUE,DALLAS,TX,75231,"7115 Greenville Ave, Dallas, TX 75231",32.876896,-96.762109,DALLAS,2146475300,9
TEXAS ORTHOPEDIC HOSPITAL,7401 SOUTH MAIN,HOUSTON,TX,77030,"7401 S Main St, Houston, TX 77030",29.701402,-95.409,HARRIS,7137943498,39
TEXAS RURAL HOSPITALS,300 EAST CROCKETT,CLEVELAND,TX,77327,"300 E Crockett St, Cleveland, TX 77327",30.341966,-95.085732,LIBERTY,2815925410,10
TEXAS SURGICAL HOSPITAL,2301 MARSH LANE,PLANO,TX,75093,"2301 Marsh Ln, Plano, TX 75093",33.030867,-96.852574,COLLIN,9728202600,26
TEXOMA MEDICAL CENTER,5016 SOUTH US HIGHWAY 75,DENISON,TX,75020,"5016 S US Highway 75, Denison, TX 75020",33.710009,-96.584679,GRAYSON,9034164000,210
THE COLONY ER HOSPITAL,4780 STATE HWY 121,THE COLONY,TX,75056,"4780 State Rte 121, The Colony, TX 75056",33.0662,-96.8854,DENTON,2144692500,2
THE CORPUS CHRISTI MEDICAL CENTER - NORTHWEST,13725 NORTHWEST BLVD,CORPUS CHRISTI,TX,78410,"13725 Northwest Blvd, Corpus Christi, TX 78410",27.856257,-97.634527,NUECES,3617674300,48
THE CORPUS CHRISTI MEDICAL CENTER - THE HEART HOSPITAL,7002 WILLIAMS DRIVE,CORPUS CHRISTI,TX,78413,"7002 Williams Dr, Corpus Christi, TX 78412",27.692506,-97.347324,NUECES,3617616800,48
THE HEIGHTS HOSPITAL,1917 ASHLAND ST,HOUSTON,TX,77008,"1917 Ashland St, Houston, TX 77008",29.803651,-95.40423,HARRIS,3463961314,34
THE HOSPITAL AT WESTLAKE MEDICAL CENTER,5656 BEE CAVES ROAD STE M-302,AUSTIN,TX,78746,"5656 Bee Caves Rd, Ste M302, West Lake Hills, TX 78746",30.294981,-97.824442,TRAVIS,5123270000,21
THE HOSPITALS OF PROVIDENCE EAST CAMPUS,3280 JOE BATTLE BOULEVARD,EL PASO,TX,79938,"3280 Joe Battle Blvd, El Paso, TX 79938",31.790579,-106.264899,EL PASO,9158322000,162
THE HOSPITALS OF PROVIDENCE HORIZON CITY CAMPUS,13600 HORIZON BOULEVARD SUITE 100,HORIZON CITY,TX,79928,"13600 Horizon Blvd, Ste 100, Horizon City, TX 79928",31.681881,-106.207809,EL PASO,9154077878,8
THE HOSPITALS OF PROVIDENCE MEMORIAL CAMPUS,2001 NORTH OREGON STREET,EL PASO,TX,79902,"2001 N Oregon St, El Paso, TX 79902",31.771502,-106.499726,EL PASO,9155776011,280
THE HOSPITALS OF PROVIDENCE NORTHEAST CAMPUS,11274 MCCOMBS STREET,EL PASO,TX,79934,"11274 McCombs St, El Paso, TX 79934",31.93777,-106.406879,EL PASO,2812922450,8
THE HOSPITALS OF PROVIDENCE SIERRA CAMPUS,1625 MEDICAL CENTER DRIVE,EL PASO,TX,79902,"1625 Medical Center St, El Paso, TX 79902",31.777611,-106.480389,EL PASO,9157474000,225
THE HOSPITALS OF PROVIDENCE SPINE & PAIN MANAGEMENT CENTER,1755 CURIE DRIVE SUITE A,EL PASO,TX,79902,"1755 Curie Dr, Ste A, El Paso, TX 79902",31.779974,-106.47751,EL PASO,9157471300,23
THE HOSPITALS OF PROVIDENCE TRANSMOUNTAIN CAMPUS,2000 TRANSMOUNTAIN RD,EL PASO,TX,79911,"El Paso, TX 79911",31.892468,-106.542594,EL PASO,9158778136,75
THE MEDICAL CENTER OF SOUTHEAST TEXAS,2555 JIMMY JOHNSON BLVD,PORT ARTHUR,TX,77640,"2555 Jimmy Johnson Blvd, Port Arthur, TX 77640",29.933896,-93.988304,JEFFERSON,4098535902,131
THE MEDICAL CENTER OF SOUTHEAST TEXAS BEAUMONT CAMPUS,6025 METROPOLITAN DR,BEAUMONT,TX,77706,"6025 Metropolitan Dr, Beaumont, TX 77706",30.112302,-94.169576,JEFFERSON,4098535902,12
THE PHYSICIANS CENTRE HOSPITAL,3131 UNIVERSITY DRIVE EAST,BRYAN,TX,77802,"3131 University Dr E, Bryan, TX 77802",30.650542,-96.297632,BRAZOS,9797313930,16
THE WOMANS HOSPITAL OF TEXAS,7600 FANNIN STREET,HOUSTON,TX,77054,"7600 Fannin St, Houston, TX 77054",29.693102,-95.402355,HARRIS,7137901234,45
THROCKMORTON COUNTY MEMORIAL HOSPITAL,802 NORTH MINTER AVENUE,THROCKMORTON,TX,76483,"802 N Minter Ave, Throckmorton, TX 76483",33.189679,-99.176697,THROCKMORTON,9408492151,14
TITUS REGIONAL MEDICAL CENTER,2001 NORTH JEFFERSON,MOUNT PLEASANT,TX,75455,"2001 N Jefferson Ave, Mount Pleasant, TX 75455",33.175741,-94.971816,TITUS,9035776000,128
TMC BONHAM HOSPITAL,504 LIPSCOMB,BONHAM,TX,75418,"504 Lipscomb St, Bonham, TX 75418",33.576622,-96.167374,FANNIN,9035838585,25
TOPS SURGICAL SPECIALTY HOSPITAL,17080 RED OAK DRIVE,HOUSTON,TX,77090,"17080 Red Oak Dr, Houston, TX 77090",30.018647,-95.443973,HARRIS,2819437400,15
TOWNSEN MEMORIAL HOSPITAL,1475 FM 1960 BYPASS E,HUMBLE,TX,77338,"1475 Farm To Market Rd 1960 Bypass Rd, Humble, TX 77338",30.004874,-95.25273,HARRIS,2813699001,5
TRINITY REGIONAL HOSPITAL SACHSE,4750 PRESIDENT GEORGE BUSH HIGHWAY,SACHSE,TX,75048,"4750 N President George Bush Hwy, Garland, TX 75048",32.952375,-96.578784,DALLAS,4692982599,28
TYLER CONTINUE CARE HOSPITAL,800 E DAWSON 4TH FLOOR,TYLER,TX,75701,"800 E Dawson St, Fl 4, Tyler, TX 75701",32.342624,-95.291902,SMITH,9035314943,51
TYLER COUNTY HOSPITAL,1100 WEST BLUFF STREET,WOODVILLE,TX,75979,"1100 W Blf, Woodville, TX 75979",30.775328,-94.426761,TYLER,4092836400,49
UNITED MEMORIAL MEDICAL CENTER,510 WEST TIDWELL ROAD,HOUSTON,TX,77091,"510 W Tidwell Rd, Houston, TX 77091",29.847916,-95.408636,HARRIS,2816188505,101
UNITED MEMORIAL MEDICAL CENTER - MID-CITIES HOSPITAL,1612 HURST TOWN CENTER DR,HURST,TX,76054,"1612 Hurst Town Center Dr, Hurst, TX 76054",32.843009,-97.188187,TARRANT,8178868584,23
UNITED MEMORIAL MEDICAL CENTER - NORTH HOSPITAL,16750 RED OAK DR,HOUSTON,TX,77090,"16811 Red Oak Dr, Houston, TX 77090",30.014633,-95.44249,HARRIS,2814537110,8
UNITED MEMORIAL MEDICAL CENTER - SUGAR LAND HOSPITAL,1211 HWY 6 #70,SUGAR LAND,TX,77478,"1211 Highway 6, Ste 70, Sugar Land, TX 77478",29.605552,-95.635752,FORT BEND,2812383900,6
UNITED REGIONAL HEALTH CARE SYSTEM,1600 11TH STREET,WICHITA FALLS,TX,76301,"1600 11th St, Wichita Falls, TX 76301",33.902797,-98.500328,WICHITA,9407648313,219
UNIVERSITY HOSPITAL,4502 MEDICAL DRIVE,SAN ANTONIO,TX,78229,"4502 Medical Dr, San Antonio, TX 78229",29.508584,-98.578904,BEXAR,2103584000,529
UNIVERSITY MEDICAL CENTER,602 INDIANA AVENUE,LUBBOCK,TX,79415,"602 Indiana Ave, Lubbock, TX 79415",33.588252,-101.892086,LUBBOCK,8067758200,200
UNIVERSITY MEDICAL CENTER OF EL PASO,4815 ALAMEDA AVENUE,EL PASO,TX,79905,"4815 Alameda Ave, El Paso, TX 79905",31.771335,-106.434012,EL PASO,9155441200,247
USMD HOSPITAL AT ARLINGTON,801 WEST I-20,ARLINGTON,TX,76017,"801 W I-20 I 20, Arlington, TX 76017",32.679522,-97.117876,TARRANT,8174723400,30
UT HEALTH EAST TEXAS ATHENS HOSPITAL,2000 SOUTH PALESTINE STREET,ATHENS,TX,75751,"2000 S Palestine St, Athens, TX 75751",32.17114,-95.843843,HENDERSON,9036761000,100
UT HEALTH EAST TEXAS CARTHAGE HOSPITAL,409 COTTAGE ROAD,CARTHAGE,TX,75633,"409 Cottage Rd, Carthage, TX 75633",32.166161,-94.34667,PANOLA,9036933841,36
UT HEALTH EAST TEXAS HENDERSON HOSPITAL,300 WILSON STREET,HENDERSON,TX,75652,"300 Wilson St, Henderson, TX 75652",32.161579,-94.796235,RUSK,9036577541,63
UT HEALTH EAST TEXAS JACKSONVILLE HOSPITAL,501 SOUTH RAGSDALE STREET,JACKSONVILLE,TX,75766,"501 S Ragsdale St, Jacksonville, TX 75766",31.961126,-95.270679,CHEROKEE,9035415100,61
UT HEALTH EAST TEXAS LONG TERM ACUTE CARE,1000 S BECKHAM AVENUE 5TH FLOOR,TYLER,TX,75701,"1000 S Beckham Ave, Fl 5, Tyler, TX 75701",32.338206,-95.291088,SMITH,9035963600,36
UT HEALTH EAST TEXAS PITTSBURG HOSPITAL,2701 US HIGHWAY 271 NORTH,PITTSBURG,TX,75686,"2701 US Highway 271 N, Pittsburg, TX 75686",33.03256,-94.961354,CAMP,9039465500,21
UT HEALTH EAST TEXAS QUITMAN HOSPITAL,117 N WINNSBORO STREET,QUITMAN,TX,75783,"211 Winnsboro St, Quitman, TX 75783",32.798584,-95.442895,WOOD,9037636300,25
UT HEALTH EAST TEXAS TYLER REGIONAL HOSPITAL,1000 SOUTH BECKHAM AVENUE,TYLER,TX,75701,"1000 S Beckham Ave, Tyler, TX 75701",32.338206,-95.291088,SMITH,9035970351,319
UVALDE MEMORIAL HOSPITAL,1025 GARNER FIELD ROAD,UVALDE,TX,78801,"1025 Garner Field Rd, Uvalde, TX 78801",29.214629,-99.767805,UVALDE,8302786251,15
VAL VERDE REGIONAL MEDICAL CENTER,801 BEDELL AVENUE,DEL RIO,TX,78840,"801 Bedell Ave, Del Rio, TX 78840",29.374882,-100.892371,VAL VERDE,8307758566,85
VALLEY BAPTIST MEDICAL CENTER,2101 PEASE ST,HARLINGEN,TX,78550,"2101 Pease St, Harlingen, TX 78550",26.17459,-97.671586,CAMERON,9563891674,386
VALLEY BAPTIST MEDICAL CENTER - BROWNSVILLE,1040 W JEFFERSON ST,BROWNSVILLE,TX,78520,"W Jefferson St, Brownsville, TX 78520",25.916015,-97.509916,CAMERON,9566985421,163
VALLEY BAPTIST MICRO-HOSPITAL WESLACO,1021 W INTERSTATE 2,WESLACO,TX,78596,"1025 E I-2, Weslaco, TX 78599",26.173507,-97.981766,HIDALGO,9563891736,8
VALLEY REGIONAL MEDICAL CENTER,100A E ALTON GLOOR BLVD,BROWNSVILLE,TX,78526,"100 E Alton Gloor Blvd, Brownsville, TX 78526",25.980037,-97.497577,CAMERON,9563507000,128
VAN ZANDT REGIONAL HOSPITAL,707 NORTH WALDRIP ST,GRAND SALINE,TX,75140,"707 N Waldrip St, Grand Saline, TX 75140",32.680508,-95.723086,VAN ZANDT,9039136303,45
VIBRA HOSPITAL OF RICHARDSON,401 WEST CAMPBELL ROAD SUITE 300,RICHARDSON,TX,75080,"401 W Campbell Rd, Ste 300, Richardson, TX 75080",32.974164,-96.726424,DALLAS,4693297300,14
VIBRA SPECIALTY HOSPITAL,2700 WALKER WAY,DESOTO,TX,75115,"2700 Walker Way, Desoto, TX 75115",32.64511,-96.883458,DALLAS,9722981100,28
W J MANGOLD MEMORIAL HOSPITAL,320 NORTH MAIN STREET,LOCKNEY,TX,79241,"320 N Main St, Floydada, TX 79235",34.127173,-101.441505,FLOYD,8066523373,25
WADLEY REGIONAL MEDICAL CENTER,1000 PINE,TEXARKANA,TX,75501,"904 Texarkana Ave, Texarkana, TX 75501",33.412317,-94.074189,BOWIE,9037988000,241
WARD MEMORIAL HOSPITAL,406 SOUTH GARY STREET,MONAHANS,TX,79756,"406 S Gary Ave, Monahans, TX 79756",31.593861,-102.883271,WARD,4329432511,25
WHITE ROCK MEDICAL CENTER,9440 POPPY DRIVE,DALLAS,TX,75218,"9440 Poppy Dr, Dallas, TX 75218",32.834389,-96.704575,DALLAS,2143246100,179
WILBARGER GENERAL HOSPITAL,920 HILLCREST DRIVE,VERNON,TX,76384,"920 Hillcrest Dr, Vernon, TX 76384",34.159177,-99.313296,WILBARGER,9405529351,28
WILSON N JONES REGIONAL MEDICAL CENTER,500 N HIGHLAND AVE,SHERMAN,TX,75092,"500 N Highland Ave, Sherman, TX 75092",33.637172,-96.623877,GRAYSON,9038704611,172
WINKLER COUNTY MEMORIAL HOSPITAL,821 JEFFEE DRIVE,KERMIT,TX,79745,"821 Jeffee Dr, Kermit, TX 79745",31.849625,-103.09028,WINKLER,4325868299,19
WINNIE COMMUNITY HOSPITAL LLC,538 BROADWAY,WINNIE,TX,77665,"538 Broadway Ave, Winnie, TX 77665",29.820322,-94.376528,CHAMBERS,4092966375,25
WISE HEALTH SURGICAL HOSPITAL,3200 NORTH TARRANT PARKWAY,FORT WORTH,TX,76177,"3200 N Tarrant Pkwy, Fort Worth, TX 76177",32.896975,-97.312848,TARRANT,8175027300,22
WISE HEALTH SURGICAL HOSPITAL,7218 CRAWFORD ROAD,ARGYLE,TX,76226,"7218 Crawford Rd, Argyle, TX 76226",33.132024,-97.204805,DENTON,9402932885,10
WISE HEALTH SYSTEM,609 MEDICAL CENTER DRIVE,DECATUR,TX,76234,"609 Medical Center Dr, Decatur, TX 76234",33.218883,-97.592858,WISE,9406275921,61
WISE HEALTH SYSTEM,2000 SOUTH FM 51,DECATUR,TX,76234,"2000 S FM 51, Decatur, TX 76234",33.217826,-97.597762,WISE,9406264001,16
WOMENS HOSPITAL AT RENAISSANCE,5502 SOUTH MC COLL,EDINBURG,TX,78539,"5502 S McColl Rd, Edinburg, TX 78539",26.252768,-98.202966,HIDALGO,9563625601,24
WOODLAND HEIGHTS MEDICAL CENTER,505 SOUTH JOHN REDDITT DRIVE,LUFKIN,TX,75904,"505 S John Redditt Dr, Lufkin, TX 75904",31.329219,-94.756536,ANGELINA,9366378501,95
WOODLANDS SPECIALTY HOSPITAL LLC,25440 I 45 NORTH,THE WOODLANDS,TX,77386,"25440 I-45, Spring, TX 77386",30.130744,-95.44307,MONTGOMERY,2816028160,6
YOAKUM COMMUNITY HOSPITAL,1200 CARL RAMERT DRIVE,YOAKUM,TX,77995,"1200 Carl Ramert Dr, Yoakum, TX 77995",29.306828,-97.129909,LAVACA,3612932321,20
YOAKUM COUNTY HOSPITAL,412 MUSTANG AVENUE,DENVER CITY,TX,79323,"412 Mustang Ave, Denver City, TX 79323",32.968908,-102.836196,YOAKUM,8065922121,22